{"type": "FeatureCollection", "features": [{"type": "Feature", "geometry": {"type": "Polygon", "coordinates": [[[746244.413638, 3382214.93324], [746244.979247, 3382214.454376], [746240.143675, 3382208.863973], [746239.578961, 3382209.34343], [746244.413638, 3382214.93324]]]}, "properties": {}}, {"type": "Feature", "geometry": {"type": "Polygon", "coordinates": [[[746239.578961, 3382209.34343], [746240.143675, 3382208.863973], [746235.308103, 3382203.273566], [746234.74428, 3382203.753618], [746239.578961, 3382209.34343]]]}, "properties": {}}, {"type": "Feature", "geometry": {"type": "Polygon", "coordinates": [[[746234.74428, 3382203.753618], [746235.308103, 3382203.273566], [746230.472535, 3382197.683164], [746229.909602, 3382198.163809], [746234.74428, 3382203.753618]]]}, "properties": {}}, {"type": "Feature", "geometry": {"type": "Polygon", "coordinates": [[[746229.909602, 3382198.163809], [746230.472535, 3382197.683164], [746225.636963, 3382192.09276], [746225.074923, 3382192.573999], [746229.909602, 3382198.163809]]]}, "properties": {}}, {"type": "Feature", "geometry": {"type": "Polygon", "coordinates": [[[746244.979247, 3382214.454376], [746245.544852, 3382213.975513], [746240.708388, 3382208.384515], [746240.143675, 3382208.863973], [746244.979247, 3382214.454376]]]}, "properties": {}}, {"type": "Feature", "geometry": {"type": "Polygon", "coordinates": [[[746240.143675, 3382208.863973], [746240.708388, 3382208.384515], [746235.871925, 3382202.793514], [746235.308103, 3382203.273566], [746240.143675, 3382208.863973]]]}, "properties": {}}, {"type": "Feature", "geometry": {"type": "Polygon", "coordinates": [[[746235.308103, 3382203.273566], [746235.871925, 3382202.793514], [746231.035466, 3382197.20252], [746230.472535, 3382197.683164], [746235.308103, 3382203.273566]]]}, "properties": {}}, {"type": "Feature", "geometry": {"type": "Polygon", "coordinates": [[[746230.472535, 3382197.683164], [746231.035466, 3382197.20252], [746226.199005, 3382191.611518], [746225.636963, 3382192.09276], [746230.472535, 3382197.683164]]]}, "properties": {}}, {"type": "Feature", "geometry": {"type": "Polygon", "coordinates": [[[746245.544852, 3382213.975513], [746246.110456, 3382213.496651], [746241.273103, 3382207.905059], [746240.708388, 3382208.384515], [746245.544852, 3382213.975513]]]}, "properties": {}}, {"type": "Feature", "geometry": {"type": "Polygon", "coordinates": [[[746240.708388, 3382208.384515], [746241.273103, 3382207.905059], [746236.435749, 3382202.313464], [746235.871925, 3382202.793514], [746240.708388, 3382208.384515]]]}, "properties": {}}, {"type": "Feature", "geometry": {"type": "Polygon", "coordinates": [[[746235.871925, 3382202.793514], [746236.435749, 3382202.313464], [746231.598397, 3382196.721875], [746231.035466, 3382197.20252], [746235.871925, 3382202.793514]]]}, "properties": {}}, {"type": "Feature", "geometry": {"type": "Polygon", "coordinates": [[[746231.035466, 3382197.20252], [746231.598397, 3382196.721875], [746226.761045, 3382191.13028], [746226.199005, 3382191.611518], [746231.035466, 3382197.20252]]]}, "properties": {}}, {"type": "Feature", "geometry": {"type": "Polygon", "coordinates": [[[746246.110456, 3382213.496651], [746246.676061, 3382213.017787], [746241.837818, 3382207.425599], [746241.273103, 3382207.905059], [746246.110456, 3382213.496651]]]}, "properties": {}}, {"type": "Feature", "geometry": {"type": "Polygon", "coordinates": [[[746241.273103, 3382207.905059], [746241.837818, 3382207.425599], [746236.999572, 3382201.833413], [746236.435749, 3382202.313464], [746241.273103, 3382207.905059]]]}, "properties": {}}, {"type": "Feature", "geometry": {"type": "Polygon", "coordinates": [[[746236.435749, 3382202.313464], [746236.999572, 3382201.833413], [746232.16133, 3382196.241226], [746231.598397, 3382196.721875], [746236.435749, 3382202.313464]]]}, "properties": {}}, {"type": "Feature", "geometry": {"type": "Polygon", "coordinates": [[[746231.598397, 3382196.721875], [746232.16133, 3382196.241226], [746227.323085, 3382190.649041], [746226.761045, 3382191.13028], [746231.598397, 3382196.721875]]]}, "properties": {}}, {"type": "Feature", "geometry": {"type": "Polygon", "coordinates": [[[746246.676061, 3382213.017787], [746247.241664, 3382212.538924], [746242.40253, 3382206.946142], [746241.837818, 3382207.425599], [746246.676061, 3382213.017787]]]}, "properties": {}}, {"type": "Feature", "geometry": {"type": "Polygon", "coordinates": [[[746241.837818, 3382207.425599], [746242.40253, 3382206.946142], [746237.563395, 3382201.353361], [746236.999572, 3382201.833413], [746241.837818, 3382207.425599]]]}, "properties": {}}, {"type": "Feature", "geometry": {"type": "Polygon", "coordinates": [[[746236.999572, 3382201.833413], [746237.563395, 3382201.353361], [746232.724261, 3382195.760582], [746232.16133, 3382196.241226], [746236.999572, 3382201.833413]]]}, "properties": {}}, {"type": "Feature", "geometry": {"type": "Polygon", "coordinates": [[[746232.16133, 3382196.241226], [746232.724261, 3382195.760582], [746227.885125, 3382190.167801], [746227.323085, 3382190.649041], [746232.16133, 3382196.241226]]]}, "properties": {}}, {"type": "Feature", "geometry": {"type": "Polygon", "coordinates": [[[746247.241664, 3382212.538924], [746247.807271, 3382212.06006], [746242.967245, 3382206.466685], [746242.40253, 3382206.946142], [746247.241664, 3382212.538924]]]}, "properties": {}}, {"type": "Feature", "geometry": {"type": "Polygon", "coordinates": [[[746242.40253, 3382206.946142], [746242.967245, 3382206.466685], [746238.127219, 3382200.873308], [746237.563395, 3382201.353361], [746242.40253, 3382206.946142]]]}, "properties": {}}, {"type": "Feature", "geometry": {"type": "Polygon", "coordinates": [[[746237.563395, 3382201.353361], [746238.127219, 3382200.873308], [746233.287194, 3382195.279936], [746232.724261, 3382195.760582], [746237.563395, 3382201.353361]]]}, "properties": {}}, {"type": "Feature", "geometry": {"type": "Polygon", "coordinates": [[[746232.724261, 3382195.760582], [746233.287194, 3382195.279936], [746228.447166, 3382189.686559], [746227.885125, 3382190.167801], [746232.724261, 3382195.760582]]]}, "properties": {}}, {"type": "Feature", "geometry": {"type": "Polygon", "coordinates": [[[746247.807271, 3382212.06006], [746248.372876, 3382211.581197], [746243.531961, 3382205.987228], [746242.967245, 3382206.466685], [746247.807271, 3382212.06006]]]}, "properties": {}}, {"type": "Feature", "geometry": {"type": "Polygon", "coordinates": [[[746242.967245, 3382206.466685], [746243.531961, 3382205.987228], [746238.691042, 3382200.393257], [746238.127219, 3382200.873308], [746242.967245, 3382206.466685]]]}, "properties": {}}, {"type": "Feature", "geometry": {"type": "Polygon", "coordinates": [[[746238.127219, 3382200.873308], [746238.691042, 3382200.393257], [746233.850126, 3382194.79929], [746233.287194, 3382195.279936], [746238.127219, 3382200.873308]]]}, "properties": {}}, {"type": "Feature", "geometry": {"type": "Polygon", "coordinates": [[[746233.287194, 3382195.279936], [746233.850126, 3382194.79929], [746229.009207, 3382189.20532], [746228.447166, 3382189.686559], [746233.287194, 3382195.279936]]]}, "properties": {}}, {"type": "Feature", "geometry": {"type": "Polygon", "coordinates": [[[746248.372876, 3382211.581197], [746248.938482, 3382211.102333], [746244.096675, 3382205.507769], [746243.531961, 3382205.987228], [746248.372876, 3382211.581197]]]}, "properties": {}}, {"type": "Feature", "geometry": {"type": "Polygon", "coordinates": [[[746243.531961, 3382205.987228], [746244.096675, 3382205.507769], [746239.254863, 3382199.913207], [746238.691042, 3382200.393257], [746243.531961, 3382205.987228]]]}, "properties": {}}, {"type": "Feature", "geometry": {"type": "Polygon", "coordinates": [[[746238.691042, 3382200.393257], [746239.254863, 3382199.913207], [746234.413058, 3382194.318644], [746233.850126, 3382194.79929], [746238.691042, 3382200.393257]]]}, "properties": {}}, {"type": "Feature", "geometry": {"type": "Polygon", "coordinates": [[[746233.850126, 3382194.79929], [746234.413058, 3382194.318644], [746229.571248, 3382188.724081], [746229.009207, 3382189.20532], [746233.850126, 3382194.79929]]]}, "properties": {}}, {"type": "Feature", "geometry": {"type": "Polygon", "coordinates": [[[746248.938482, 3382211.102333], [746249.504089, 3382210.62347], [746244.661388, 3382205.028312], [746244.096675, 3382205.507769], [746248.938482, 3382211.102333]]]}, "properties": {}}, {"type": "Feature", "geometry": {"type": "Polygon", "coordinates": [[[746244.096675, 3382205.507769], [746244.661388, 3382205.028312], [746239.818689, 3382199.433155], [746239.254863, 3382199.913207], [746244.096675, 3382205.507769]]]}, "properties": {}}, {"type": "Feature", "geometry": {"type": "Polygon", "coordinates": [[[746239.254863, 3382199.913207], [746239.818689, 3382199.433155], [746234.97599, 3382193.837997], [746234.413058, 3382194.318644], [746239.254863, 3382199.913207]]]}, "properties": {}}, {"type": "Feature", "geometry": {"type": "Polygon", "coordinates": [[[746234.413058, 3382194.318644], [746234.97599, 3382193.837997], [746230.133289, 3382188.242841], [746229.571248, 3382188.724081], [746234.413058, 3382194.318644]]]}, "properties": {}}, {"type": "Feature", "geometry": {"type": "Polygon", "coordinates": [[[746249.504089, 3382210.62347], [746250.069693, 3382210.144605], [746245.226102, 3382204.548856], [746244.661388, 3382205.028312], [746249.504089, 3382210.62347]]]}, "properties": {}}, {"type": "Feature", "geometry": {"type": "Polygon", "coordinates": [[[746244.661388, 3382205.028312], [746245.226102, 3382204.548856], [746240.38251, 3382198.953102], [746239.818689, 3382199.433155], [746244.661388, 3382205.028312]]]}, "properties": {}}, {"type": "Feature", "geometry": {"type": "Polygon", "coordinates": [[[746239.818689, 3382199.433155], [746240.38251, 3382198.953102], [746235.538922, 3382193.357351], [746234.97599, 3382193.837997], [746239.818689, 3382199.433155]]]}, "properties": {}}, {"type": "Feature", "geometry": {"type": "Polygon", "coordinates": [[[746234.97599, 3382193.837997], [746235.538922, 3382193.357351], [746230.695331, 3382187.761599], [746230.133289, 3382188.242841], [746234.97599, 3382193.837997]]]}, "properties": {}}, {"type": "Feature", "geometry": {"type": "Polygon", "coordinates": [[[746250.069693, 3382210.144605], [746250.635303, 3382209.665741], [746245.790819, 3382204.069397], [746245.226102, 3382204.548856], [746250.069693, 3382210.144605]]]}, "properties": {}}, {"type": "Feature", "geometry": {"type": "Polygon", "coordinates": [[[746245.226102, 3382204.548856], [746245.790819, 3382204.069397], [746240.946334, 3382198.47305], [746240.38251, 3382198.953102], [746245.226102, 3382204.548856]]]}, "properties": {}}, {"type": "Feature", "geometry": {"type": "Polygon", "coordinates": [[[746240.38251, 3382198.953102], [746240.946334, 3382198.47305], [746236.101853, 3382192.876706], [746235.538922, 3382193.357351], [746240.38251, 3382198.953102]]]}, "properties": {}}, {"type": "Feature", "geometry": {"type": "Polygon", "coordinates": [[[746235.538922, 3382193.357351], [746236.101853, 3382192.876706], [746231.257371, 3382187.28036], [746230.695331, 3382187.761599], [746235.538922, 3382193.357351]]]}, "properties": {}}, {"type": "Feature", "geometry": {"type": "Polygon", "coordinates": [[[746250.635303, 3382209.665741], [746251.200905, 3382209.186879], [746246.35553, 3382203.58994], [746245.790819, 3382204.069397], [746250.635303, 3382209.665741]]]}, "properties": {}}, {"type": "Feature", "geometry": {"type": "Polygon", "coordinates": [[[746245.790819, 3382204.069397], [746246.35553, 3382203.58994], [746241.510155, 3382197.993], [746240.946334, 3382198.47305], [746245.790819, 3382204.069397]]]}, "properties": {}}, {"type": "Feature", "geometry": {"type": "Polygon", "coordinates": [[[746240.946334, 3382198.47305], [746241.510155, 3382197.993], [746236.664786, 3382192.396061], [746236.101853, 3382192.876706], [746240.946334, 3382198.47305]]]}, "properties": {}}, {"type": "Feature", "geometry": {"type": "Polygon", "coordinates": [[[746236.101853, 3382192.876706], [746236.664786, 3382192.396061], [746231.819411, 3382186.79912], [746231.257371, 3382187.28036], [746236.101853, 3382192.876706]]]}, "properties": {}}, {"type": "Feature", "geometry": {"type": "Polygon", "coordinates": [[[746251.200905, 3382209.186879], [746251.766512, 3382208.708016], [746246.920245, 3382203.110483], [746246.35553, 3382203.58994], [746251.200905, 3382209.186879]]]}, "properties": {}}, {"type": "Feature", "geometry": {"type": "Polygon", "coordinates": [[[746246.35553, 3382203.58994], [746246.920245, 3382203.110483], [746242.073978, 3382197.512949], [746241.510155, 3382197.993], [746246.35553, 3382203.58994]]]}, "properties": {}}, {"type": "Feature", "geometry": {"type": "Polygon", "coordinates": [[[746241.510155, 3382197.993], [746242.073978, 3382197.512949], [746237.227717, 3382191.915416], [746236.664786, 3382192.396061], [746241.510155, 3382197.993]]]}, "properties": {}}, {"type": "Feature", "geometry": {"type": "Polygon", "coordinates": [[[746236.664786, 3382192.396061], [746237.227717, 3382191.915416], [746232.381452, 3382186.317881], [746231.819411, 3382186.79912], [746236.664786, 3382192.396061]]]}, "properties": {}}, {"type": "Feature", "geometry": {"type": "Polygon", "coordinates": [[[746251.766512, 3382208.708016], [746252.332113, 3382208.229152], [746247.48496, 3382202.631024], [746246.920245, 3382203.110483], [746251.766512, 3382208.708016]]]}, "properties": {}}, {"type": "Feature", "geometry": {"type": "Polygon", "coordinates": [[[746246.920245, 3382203.110483], [746247.48496, 3382202.631024], [746242.637804, 3382197.032895], [746242.073978, 3382197.512949], [746246.920245, 3382203.110483]]]}, "properties": {}}, {"type": "Feature", "geometry": {"type": "Polygon", "coordinates": [[[746242.073978, 3382197.512949], [746242.637804, 3382197.032895], [746237.79065, 3382191.434768], [746237.227717, 3382191.915416], [746242.073978, 3382197.512949]]]}, "properties": {}}, {"type": "Feature", "geometry": {"type": "Polygon", "coordinates": [[[746237.227717, 3382191.915416], [746237.79065, 3382191.434768], [746232.943494, 3382185.836639], [746232.381452, 3382186.317881], [746237.227717, 3382191.915416]]]}, "properties": {}}, {"type": "Feature", "geometry": {"type": "Polygon", "coordinates": [[[746252.332113, 3382208.229152], [746252.897718, 3382207.75029], [746248.049671, 3382202.151568], [746247.48496, 3382202.631024], [746252.332113, 3382208.229152]]]}, "properties": {}}, {"type": "Feature", "geometry": {"type": "Polygon", "coordinates": [[[746247.48496, 3382202.631024], [746248.049671, 3382202.151568], [746243.201625, 3382196.552845], [746242.637804, 3382197.032895], [746247.48496, 3382202.631024]]]}, "properties": {}}, {"type": "Feature", "geometry": {"type": "Polygon", "coordinates": [[[746242.637804, 3382197.032895], [746243.201625, 3382196.552845], [746238.353582, 3382190.954124], [746237.79065, 3382191.434768], [746242.637804, 3382197.032895]]]}, "properties": {}}, {"type": "Feature", "geometry": {"type": "Polygon", "coordinates": [[[746237.79065, 3382191.434768], [746238.353582, 3382190.954124], [746233.505534, 3382185.3554], [746232.943494, 3382185.836639], [746237.79065, 3382191.434768]]]}, "properties": {}}, {"type": "Feature", "geometry": {"type": "Polygon", "coordinates": [[[746252.897718, 3382207.75029], [746253.463328, 3382207.271424], [746248.61439, 3382201.672108], [746248.049671, 3382202.151568], [746252.897718, 3382207.75029]]]}, "properties": {}}, {"type": "Feature", "geometry": {"type": "Polygon", "coordinates": [[[746248.049671, 3382202.151568], [746248.61439, 3382201.672108], [746243.765449, 3382196.072792], [746243.201625, 3382196.552845], [746248.049671, 3382202.151568]]]}, "properties": {}}, {"type": "Feature", "geometry": {"type": "Polygon", "coordinates": [[[746243.201625, 3382196.552845], [746243.765449, 3382196.072792], [746238.916514, 3382190.473479], [746238.353582, 3382190.954124], [746243.201625, 3382196.552845]]]}, "properties": {}}, {"type": "Feature", "geometry": {"type": "Polygon", "coordinates": [[[746238.353582, 3382190.954124], [746238.916514, 3382190.473479], [746234.067574, 3382184.874163], [746233.505534, 3382185.3554], [746238.353582, 3382190.954124]]]}, "properties": {}}, {"type": "Feature", "geometry": {"type": "Polygon", "coordinates": [[[746253.463328, 3382207.271424], [746254.028932, 3382206.79256], [746249.179103, 3382201.192652], [746248.61439, 3382201.672108], [746253.463328, 3382207.271424]]]}, "properties": {}}, {"type": "Feature", "geometry": {"type": "Polygon", "coordinates": [[[746248.61439, 3382201.672108], [746249.179103, 3382201.192652], [746244.329273, 3382195.592741], [746243.765449, 3382196.072792], [746248.61439, 3382201.672108]]]}, "properties": {}}, {"type": "Feature", "geometry": {"type": "Polygon", "coordinates": [[[746243.765449, 3382196.072792], [746244.329273, 3382195.592741], [746239.479447, 3382189.992835], [746238.916514, 3382190.473479], [746243.765449, 3382196.072792]]]}, "properties": {}}, {"type": "Feature", "geometry": {"type": "Polygon", "coordinates": [[[746238.916514, 3382190.473479], [746239.479447, 3382189.992835], [746234.629615, 3382184.392924], [746234.067574, 3382184.874163], [746238.916514, 3382190.473479]]]}, "properties": {}}, {"type": "Feature", "geometry": {"type": "Polygon", "coordinates": [[[746254.028932, 3382206.79256], [746254.594536, 3382206.313697], [746249.743818, 3382200.713194], [746249.179103, 3382201.192652], [746254.028932, 3382206.79256]]]}, "properties": {}}, {"type": "Feature", "geometry": {"type": "Polygon", "coordinates": [[[746249.179103, 3382201.192652], [746249.743818, 3382200.713194], [746244.893094, 3382195.112689], [746244.329273, 3382195.592741], [746249.179103, 3382201.192652]]]}, "properties": {}}, {"type": "Feature", "geometry": {"type": "Polygon", "coordinates": [[[746244.329273, 3382195.592741], [746244.893094, 3382195.112689], [746240.042378, 3382189.512184], [746239.479447, 3382189.992835], [746244.329273, 3382195.592741]]]}, "properties": {}}, {"type": "Feature", "geometry": {"type": "Polygon", "coordinates": [[[746239.479447, 3382189.992835], [746240.042378, 3382189.512184], [746235.191657, 3382183.911679], [746234.629615, 3382184.392924], [746239.479447, 3382189.992835]]]}, "properties": {}}, {"type": "Feature", "geometry": {"type": "Polygon", "coordinates": [[[746254.594536, 3382206.313697], [746255.16014, 3382205.834834], [746250.30853, 3382200.233737], [746249.743818, 3382200.713194], [746254.594536, 3382206.313697]]]}, "properties": {}}, {"type": "Feature", "geometry": {"type": "Polygon", "coordinates": [[[746249.743818, 3382200.713194], [746250.30853, 3382200.233737], [746245.45692, 3382194.632636], [746244.893094, 3382195.112689], [746249.743818, 3382200.713194]]]}, "properties": {}}, {"type": "Feature", "geometry": {"type": "Polygon", "coordinates": [[[746244.893094, 3382195.112689], [746245.45692, 3382194.632636], [746240.605311, 3382189.03154], [746240.042378, 3382189.512184], [746244.893094, 3382195.112689]]]}, "properties": {}}, {"type": "Feature", "geometry": {"type": "Polygon", "coordinates": [[[746240.042378, 3382189.512184], [746240.605311, 3382189.03154], [746235.753698, 3382183.430439], [746235.191657, 3382183.911679], [746240.042378, 3382189.512184]]]}, "properties": {}}, {"type": "Feature", "geometry": {"type": "Polygon", "coordinates": [[[746255.16014, 3382205.834834], [746255.725748, 3382205.355972], [746250.873245, 3382199.75428], [746250.30853, 3382200.233737], [746255.16014, 3382205.834834]]]}, "properties": {}}, {"type": "Feature", "geometry": {"type": "Polygon", "coordinates": [[[746250.30853, 3382200.233737], [746250.873245, 3382199.75428], [746246.020744, 3382194.152586], [746245.45692, 3382194.632636], [746250.30853, 3382200.233737]]]}, "properties": {}}, {"type": "Feature", "geometry": {"type": "Polygon", "coordinates": [[[746245.45692, 3382194.632636], [746246.020744, 3382194.152586], [746241.168239, 3382188.550898], [746240.605311, 3382189.03154], [746245.45692, 3382194.632636]]]}, "properties": {}}, {"type": "Feature", "geometry": {"type": "Polygon", "coordinates": [[[746240.605311, 3382189.03154], [746241.168239, 3382188.550898], [746236.315738, 3382182.9492], [746235.753698, 3382183.430439], [746240.605311, 3382189.03154]]]}, "properties": {}}, {"type": "Feature", "geometry": {"type": "Polygon", "coordinates": [[[746255.725748, 3382205.355972], [746256.291355, 3382204.877108], [746251.437963, 3382199.274821], [746250.873245, 3382199.75428], [746255.725748, 3382205.355972]]]}, "properties": {}}, {"type": "Feature", "geometry": {"type": "Polygon", "coordinates": [[[746250.873245, 3382199.75428], [746251.437963, 3382199.274821], [746246.584564, 3382193.672534], [746246.020744, 3382194.152586], [746250.873245, 3382199.75428]]]}, "properties": {}}, {"type": "Feature", "geometry": {"type": "Polygon", "coordinates": [[[746246.020744, 3382194.152586], [746246.584564, 3382193.672534], [746241.731173, 3382188.070248], [746241.168239, 3382188.550898], [746246.020744, 3382194.152586]]]}, "properties": {}}, {"type": "Feature", "geometry": {"type": "Polygon", "coordinates": [[[746241.168239, 3382188.550898], [746241.731173, 3382188.070248], [746236.877778, 3382182.467961], [746236.315738, 3382182.9492], [746241.168239, 3382188.550898]]]}, "properties": {}}, {"type": "Feature", "geometry": {"type": "Polygon", "coordinates": [[[746256.291355, 3382204.877108], [746256.856962, 3382204.398245], [746252.002675, 3382198.795363], [746251.437963, 3382199.274821], [746256.291355, 3382204.877108]]]}, "properties": {}}, {"type": "Feature", "geometry": {"type": "Polygon", "coordinates": [[[746251.437963, 3382199.274821], [746252.002675, 3382198.795363], [746247.148388, 3382193.192483], [746246.584564, 3382193.672534], [746251.437963, 3382199.274821]]]}, "properties": {}}, {"type": "Feature", "geometry": {"type": "Polygon", "coordinates": [[[746246.584564, 3382193.672534], [746247.148388, 3382193.192483], [746242.294105, 3382187.589601], [746241.731173, 3382188.070248], [746246.584564, 3382193.672534]]]}, "properties": {}}, {"type": "Feature", "geometry": {"type": "Polygon", "coordinates": [[[746241.731173, 3382188.070248], [746242.294105, 3382187.589601], [746237.439817, 3382181.986724], [746236.877778, 3382182.467961], [746241.731173, 3382188.070248]]]}, "properties": {}}, {"type": "Feature", "geometry": {"type": "Polygon", "coordinates": [[[746256.856962, 3382204.398245], [746257.422563, 3382203.919383], [746252.56739, 3382198.315905], [746252.002675, 3382198.795363], [746256.856962, 3382204.398245]]]}, "properties": {}}, {"type": "Feature", "geometry": {"type": "Polygon", "coordinates": [[[746252.002675, 3382198.795363], [746252.56739, 3382198.315905], [746247.712209, 3382192.71243], [746247.148388, 3382193.192483], [746252.002675, 3382198.795363]]]}, "properties": {}}, {"type": "Feature", "geometry": {"type": "Polygon", "coordinates": [[[746247.148388, 3382193.192483], [746247.712209, 3382192.71243], [746242.857036, 3382187.108956], [746242.294105, 3382187.589601], [746247.148388, 3382193.192483]]]}, "properties": {}}, {"type": "Feature", "geometry": {"type": "Polygon", "coordinates": [[[746242.294105, 3382187.589601], [746242.857036, 3382187.108956], [746238.00186, 3382181.505482], [746237.439817, 3382181.986724], [746242.294105, 3382187.589601]]]}, "properties": {}}, {"type": "Feature", "geometry": {"type": "Polygon", "coordinates": [[[746257.422563, 3382203.919383], [746257.988173, 3382203.440515], [746253.132105, 3382197.836448], [746252.56739, 3382198.315905], [746257.422563, 3382203.919383]]]}, "properties": {}}, {"type": "Feature", "geometry": {"type": "Polygon", "coordinates": [[[746252.56739, 3382198.315905], [746253.132105, 3382197.836448], [746248.276036, 3382192.232376], [746247.712209, 3382192.71243], [746252.56739, 3382198.315905]]]}, "properties": {}}, {"type": "Feature", "geometry": {"type": "Polygon", "coordinates": [[[746247.712209, 3382192.71243], [746248.276036, 3382192.232376], [746243.419969, 3382186.628312], [746242.857036, 3382187.108956], [746247.712209, 3382192.71243]]]}, "properties": {}}, {"type": "Feature", "geometry": {"type": "Polygon", "coordinates": [[[746242.857036, 3382187.108956], [746243.419969, 3382186.628312], [746238.563904, 3382181.024243], [746238.00186, 3382181.505482], [746242.857036, 3382187.108956]]]}, "properties": {}}, {"type": "Feature", "geometry": {"type": "Polygon", "coordinates": [[[746257.988173, 3382203.440515], [746258.553775, 3382202.961655], [746253.696817, 3382197.356993], [746253.132105, 3382197.836448], [746257.988173, 3382203.440515]]]}, "properties": {}}, {"type": "Feature", "geometry": {"type": "Polygon", "coordinates": [[[746253.132105, 3382197.836448], [746253.696817, 3382197.356993], [746248.839859, 3382191.752326], [746248.276036, 3382192.232376], [746253.132105, 3382197.836448]]]}, "properties": {}}, {"type": "Feature", "geometry": {"type": "Polygon", "coordinates": [[[746248.276036, 3382192.232376], [746248.839859, 3382191.752326], [746243.9829, 3382186.147667], [746243.419969, 3382186.628312], [746248.276036, 3382192.232376]]]}, "properties": {}}, {"type": "Feature", "geometry": {"type": "Polygon", "coordinates": [[[746243.419969, 3382186.628312], [746243.9829, 3382186.147667], [746239.125939, 3382180.543003], [746238.563904, 3382181.024243], [746243.419969, 3382186.628312]]]}, "properties": {}}, {"type": "Feature", "geometry": {"type": "Polygon", "coordinates": [[[746258.553775, 3382202.961655], [746259.119387, 3382202.482789], [746254.261532, 3382196.877534], [746253.696817, 3382197.356993], [746258.553775, 3382202.961655]]]}, "properties": {}}, {"type": "Feature", "geometry": {"type": "Polygon", "coordinates": [[[746253.696817, 3382197.356993], [746254.261532, 3382196.877534], [746249.403682, 3382191.272275], [746248.839859, 3382191.752326], [746253.696817, 3382197.356993]]]}, "properties": {}}, {"type": "Feature", "geometry": {"type": "Polygon", "coordinates": [[[746248.839859, 3382191.752326], [746249.403682, 3382191.272275], [746244.545833, 3382185.66702], [746243.9829, 3382186.147667], [746248.839859, 3382191.752326]]]}, "properties": {}}, {"type": "Feature", "geometry": {"type": "Polygon", "coordinates": [[[746243.9829, 3382186.147667], [746244.545833, 3382185.66702], [746239.687983, 3382180.061764], [746239.125939, 3382180.543003], [746243.9829, 3382186.147667]]]}, "properties": {}}, {"type": "Feature", "geometry": {"type": "Polygon", "coordinates": [[[746259.119387, 3382202.482789], [746259.684986, 3382202.003928], [746254.826244, 3382196.398076], [746254.261532, 3382196.877534], [746259.119387, 3382202.482789]]]}, "properties": {}}, {"type": "Feature", "geometry": {"type": "Polygon", "coordinates": [[[746254.261532, 3382196.877534], [746254.826244, 3382196.398076], [746249.967504, 3382190.792223], [746249.403682, 3382191.272275], [746254.261532, 3382196.877534]]]}, "properties": {}}, {"type": "Feature", "geometry": {"type": "Polygon", "coordinates": [[[746249.403682, 3382191.272275], [746249.967504, 3382190.792223], [746245.108765, 3382185.186372], [746244.545833, 3382185.66702], [746249.403682, 3382191.272275]]]}, "properties": {}}, {"type": "Feature", "geometry": {"type": "Polygon", "coordinates": [[[746244.545833, 3382185.66702], [746245.108765, 3382185.186372], [746240.250024, 3382179.580519], [746239.687983, 3382180.061764], [746244.545833, 3382185.66702]]]}, "properties": {}}, {"type": "Feature", "geometry": {"type": "Polygon", "coordinates": [[[746259.684986, 3382202.003928], [746260.250593, 3382201.525063], [746255.390959, 3382195.918617], [746254.826244, 3382196.398076], [746259.684986, 3382202.003928]]]}, "properties": {}}, {"type": "Feature", "geometry": {"type": "Polygon", "coordinates": [[[746254.826244, 3382196.398076], [746255.390959, 3382195.918617], [746250.531327, 3382190.312173], [746249.967504, 3382190.792223], [746254.826244, 3382196.398076]]]}, "properties": {}}, {"type": "Feature", "geometry": {"type": "Polygon", "coordinates": [[[746249.967504, 3382190.792223], [746250.531327, 3382190.312173], [746245.671698, 3382184.705725], [746245.108765, 3382185.186372], [746249.967504, 3382190.792223]]]}, "properties": {}}, {"type": "Feature", "geometry": {"type": "Polygon", "coordinates": [[[746245.108765, 3382185.186372], [746245.671698, 3382184.705725], [746240.812065, 3382179.099283], [746240.250024, 3382179.580519], [746245.108765, 3382185.186372]]]}, "properties": {}}, {"type": "Feature", "geometry": {"type": "Polygon", "coordinates": [[[746260.250593, 3382201.525063], [746260.816197, 3382201.046199], [746255.955676, 3382195.43916], [746255.390959, 3382195.918617], [746260.250593, 3382201.525063]]]}, "properties": {}}, {"type": "Feature", "geometry": {"type": "Polygon", "coordinates": [[[746255.390959, 3382195.918617], [746255.955676, 3382195.43916], [746251.095153, 3382189.83212], [746250.531327, 3382190.312173], [746255.390959, 3382195.918617]]]}, "properties": {}}, {"type": "Feature", "geometry": {"type": "Polygon", "coordinates": [[[746250.531327, 3382190.312173], [746251.095153, 3382189.83212], [746246.234629, 3382184.22508], [746245.671698, 3382184.705725], [746250.531327, 3382190.312173]]]}, "properties": {}}, {"type": "Feature", "geometry": {"type": "Polygon", "coordinates": [[[746245.671698, 3382184.705725], [746246.234629, 3382184.22508], [746241.374105, 3382178.61804], [746240.812065, 3382179.099283], [746245.671698, 3382184.705725]]]}, "properties": {}}, {"type": "Feature", "geometry": {"type": "Polygon", "coordinates": [[[746260.816197, 3382201.046199], [746261.381802, 3382200.567339], [746256.520389, 3382194.959705], [746255.955676, 3382195.43916], [746260.816197, 3382201.046199]]]}, "properties": {}}, {"type": "Feature", "geometry": {"type": "Polygon", "coordinates": [[[746255.955676, 3382195.43916], [746256.520389, 3382194.959705], [746251.658973, 3382189.352068], [746251.095153, 3382189.83212], [746255.955676, 3382195.43916]]]}, "properties": {}}, {"type": "Feature", "geometry": {"type": "Polygon", "coordinates": [[[746251.095153, 3382189.83212], [746251.658973, 3382189.352068], [746246.797559, 3382183.744439], [746246.234629, 3382184.22508], [746251.095153, 3382189.83212]]]}, "properties": {}}, {"type": "Feature", "geometry": {"type": "Polygon", "coordinates": [[[746246.234629, 3382184.22508], [746246.797559, 3382183.744439], [746241.936145, 3382178.136804], [746241.374105, 3382178.61804], [746246.234629, 3382184.22508]]]}, "properties": {}}, {"type": "Feature", "geometry": {"type": "Polygon", "coordinates": [[[746261.381802, 3382200.567339], [746261.947409, 3382200.088476], [746257.085103, 3382194.480245], [746256.520389, 3382194.959705], [746261.381802, 3382200.567339]]]}, "properties": {}}, {"type": "Feature", "geometry": {"type": "Polygon", "coordinates": [[[746256.520389, 3382194.959705], [746257.085103, 3382194.480245], [746252.222795, 3382188.872021], [746251.658973, 3382189.352068], [746256.520389, 3382194.959705]]]}, "properties": {}}, {"type": "Feature", "geometry": {"type": "Polygon", "coordinates": [[[746251.658973, 3382189.352068], [746252.222795, 3382188.872021], [746247.360493, 3382183.263791], [746246.797559, 3382183.744439], [746251.658973, 3382189.352068]]]}, "properties": {}}, {"type": "Feature", "geometry": {"type": "Polygon", "coordinates": [[[746246.797559, 3382183.744439], [746247.360493, 3382183.263791], [746242.498185, 3382177.655565], [746241.936145, 3382178.136804], [746246.797559, 3382183.744439]]]}, "properties": {}}], "crs": {"type": "name", "properties": {"name": "EPSG:32614"}}}