{"type": "FeatureCollection", "features": [{"type": "Feature", "geometry": {"type": "Point", "coordinates": [696197.537457, 4484791.73921]}, "properties": {}}, {"type": "Feature", "geometry": {"type": "Point", "coordinates": [696205.684297, 4484791.792448]}, "properties": {}}, {"type": "Feature", "geometry": {"type": "Point", "coordinates": [696206.110275, 4484781.357793]}, "properties": {}}, {"type": "Feature", "geometry": {"type": "Point", "coordinates": [696197.484209, 4484781.251317]}, "properties": {}}], "crs": {"type": "name", "properties": {"name": "EPSG:32615"}}}