{
"type": "FeatureCollection",
"name": "ex4_plots",
"crs": { "type": "name", "properties": { "name": "urn:ogc:def:crs:EPSG::32615" } },
"features": [
{ "type": "Feature", "properties": { }, "geometry": { "type": "Polygon", "coordinates": [ [ [ 696199.081629000022076, 4484784.285884999670088 ], [ 696199.251625370350666, 4484784.286995892412961 ], [ 696199.371954148286022, 4484781.33945098426193 ], [ 696199.201957777957432, 4484781.338340091519058 ], [ 696199.081629000022076, 4484784.285884999670088 ] ] ] } },
{ "type": "Feature", "properties": { }, "geometry": { "type": "Polygon", "coordinates": [ [ [ 696199.251625370350666, 4484784.286995892412961 ], [ 696199.421621740679257, 4484784.288106785155833 ], [ 696199.541950518614613, 4484781.340561877004802 ], [ 696199.371954148286022, 4484781.33945098426193 ], [ 696199.251625370350666, 4484784.286995892412961 ] ] ] } },
{ "type": "Feature", "properties": { }, "geometry": { "type": "Polygon", "coordinates": [ [ [ 696199.421621740679257, 4484784.288106785155833 ], [ 696199.591618111007847, 4484784.289217677898705 ], [ 696199.711946888943203, 4484781.341672769747674 ], [ 696199.541950518614613, 4484781.340561877004802 ], [ 696199.421621740679257, 4484784.288106785155833 ] ] ] } },
{ "type": "Feature", "properties": { }, "geometry": { "type": "Polygon", "coordinates": [ [ [ 696199.591618110891432, 4484784.289217678830028 ], [ 696199.761614481220022, 4484784.2903285715729 ], [ 696199.881943259155378, 4484781.342783663421869 ], [ 696199.711946888826787, 4484781.341672770678997 ], [ 696199.591618110891432, 4484784.289217678830028 ] ] ] } },
{ "type": "Feature", "properties": { }, "geometry": { "type": "Polygon", "coordinates": [ [ [ 696199.761614481220022, 4484784.2903285715729 ], [ 696199.931610851548612, 4484784.291439464315772 ], [ 696200.051939629483968, 4484781.343894556164742 ], [ 696199.881943259155378, 4484781.342783663421869 ], [ 696199.761614481220022, 4484784.2903285715729 ] ] ] } },
{ "type": "Feature", "properties": { }, "geometry": { "type": "Polygon", "coordinates": [ [ [ 696199.931610851548612, 4484784.291439464315772 ], [ 696200.101607221877202, 4484784.292550357058644 ], [ 696200.221935999812558, 4484781.345005448907614 ], [ 696200.051939629483968, 4484781.343894556164742 ], [ 696199.931610851548612, 4484784.291439464315772 ] ] ] } },
{ "type": "Feature", "properties": { }, "geometry": { "type": "Polygon", "coordinates": [ [ [ 696200.101607221877202, 4484784.292550357058644 ], [ 696200.271603592205793, 4484784.293661249801517 ], [ 696200.391932370141149, 4484781.346116341650486 ], [ 696200.221935999812558, 4484781.345005448907614 ], [ 696200.101607221877202, 4484784.292550357058644 ] ] ] } },
{ "type": "Feature", "properties": { }, "geometry": { "type": "Polygon", "coordinates": [ [ [ 696200.271603592205793, 4484784.293661249801517 ], [ 696200.441599962534383, 4484784.294772142544389 ], [ 696200.561928740469739, 4484781.347227234393358 ], [ 696200.391932370141149, 4484781.346116341650486 ], [ 696200.271603592205793, 4484784.293661249801517 ] ] ] } },
{ "type": "Feature", "properties": { }, "geometry": { "type": "Polygon", "coordinates": [ [ [ 696201.051779999979772, 4484784.339123000390828 ], [ 696201.221776370308362, 4484784.3402338931337 ], [ 696201.342105148243718, 4484781.392688984982669 ], [ 696201.172108777915128, 4484781.391578092239797 ], [ 696201.051779999979772, 4484784.339123000390828 ] ] ] } },
{ "type": "Feature", "properties": { }, "geometry": { "type": "Polygon", "coordinates": [ [ [ 696201.221776370308362, 4484784.3402338931337 ], [ 696201.391772740636952, 4484784.341344785876572 ], [ 696201.512101518572308, 4484781.393799877725542 ], [ 696201.342105148243718, 4484781.392688984982669 ], [ 696201.221776370308362, 4484784.3402338931337 ] ] ] } },
{ "type": "Feature", "properties": { }, "geometry": { "type": "Polygon", "coordinates": [ [ [ 696201.391772740636952, 4484784.341344785876572 ], [ 696201.561769110965542, 4484784.342455678619444 ], [ 696201.682097888900898, 4484781.394910770468414 ], [ 696201.512101518572308, 4484781.393799877725542 ], [ 696201.391772740636952, 4484784.341344785876572 ] ] ] } },
{ "type": "Feature", "properties": { }, "geometry": { "type": "Polygon", "coordinates": [ [ [ 696201.561769110849127, 4484784.342455679550767 ], [ 696201.731765481177717, 4484784.343566572293639 ], [ 696201.852094259113073, 4484781.396021664142609 ], [ 696201.682097888784483, 4484781.394910771399736 ], [ 696201.561769110849127, 4484784.342455679550767 ] ] ] } },
{ "type": "Feature", "properties": { }, "geometry": { "type": "Polygon", "coordinates": [ [ [ 696201.731765481177717, 4484784.343566572293639 ], [ 696201.901761851506308, 4484784.344677465036511 ], [ 696202.022090629441664, 4484781.397132556885481 ], [ 696201.852094259113073, 4484781.396021664142609 ], [ 696201.731765481177717, 4484784.343566572293639 ] ] ] } },
{ "type": "Feature", "properties": { }, "geometry": { "type": "Polygon", "coordinates": [ [ [ 696201.901761851506308, 4484784.344677465036511 ], [ 696202.071758221834898, 4484784.345788357779384 ], [ 696202.192086999770254, 4484781.398243449628353 ], [ 696202.022090629441664, 4484781.397132556885481 ], [ 696201.901761851506308, 4484784.344677465036511 ] ] ] } },
{ "type": "Feature", "properties": { }, "geometry": { "type": "Polygon", "coordinates": [ [ [ 696202.071758221834898, 4484784.345788357779384 ], [ 696202.241754592163488, 4484784.346899250522256 ], [ 696202.362083370098844, 4484781.399354342371225 ], [ 696202.192086999770254, 4484781.398243449628353 ], [ 696202.071758221834898, 4484784.345788357779384 ] ] ] } },
{ "type": "Feature", "properties": { }, "geometry": { "type": "Polygon", "coordinates": [ [ [ 696202.241754592163488, 4484784.346899250522256 ], [ 696202.411750962492079, 4484784.348010143265128 ], [ 696202.532079740427434, 4484781.400465235114098 ], [ 696202.362083370098844, 4484781.399354342371225 ], [ 696202.241754592163488, 4484784.346899250522256 ] ] ] } },
{ "type": "Feature", "properties": { }, "geometry": { "type": "Polygon", "coordinates": [ [ [ 696203.288167000049725, 4484784.339123000390828 ], [ 696203.458163370378315, 4484784.3402338931337 ], [ 696203.578492148313671, 4484781.392688984982669 ], [ 696203.408495777985081, 4484781.391578092239797 ], [ 696203.288167000049725, 4484784.339123000390828 ] ] ] } },
{ "type": "Feature", "properties": { }, "geometry": { "type": "Polygon", "coordinates": [ [ [ 696203.458163370378315, 4484784.3402338931337 ], [ 696203.628159740706906, 4484784.341344785876572 ], [ 696203.748488518642262, 4484781.393799877725542 ], [ 696203.578492148313671, 4484781.392688984982669 ], [ 696203.458163370378315, 4484784.3402338931337 ] ] ] } },
{ "type": "Feature", "properties": { }, "geometry": { "type": "Polygon", "coordinates": [ [ [ 696203.628159740706906, 4484784.341344785876572 ], [ 696203.798156111035496, 4484784.342455678619444 ], [ 696203.918484888970852, 4484781.394910770468414 ], [ 696203.748488518642262, 4484781.393799877725542 ], [ 696203.628159740706906, 4484784.341344785876572 ] ] ] } },
{ "type": "Feature", "properties": { }, "geometry": { "type": "Polygon", "coordinates": [ [ [ 696203.798156110919081, 4484784.342455679550767 ], [ 696203.968152481247671, 4484784.343566572293639 ], [ 696204.088481259183027, 4484781.396021664142609 ], [ 696203.918484888854437, 4484781.394910771399736 ], [ 696203.798156110919081, 4484784.342455679550767 ] ] ] } },
{ "type": "Feature", "properties": { }, "geometry": { "type": "Polygon", "coordinates": [ [ [ 696203.968152481247671, 4484784.343566572293639 ], [ 696204.138148851576261, 4484784.344677465036511 ], [ 696204.258477629511617, 4484781.397132556885481 ], [ 696204.088481259183027, 4484781.396021664142609 ], [ 696203.968152481247671, 4484784.343566572293639 ] ] ] } },
{ "type": "Feature", "properties": { }, "geometry": { "type": "Polygon", "coordinates": [ [ [ 696204.138148851576261, 4484784.344677465036511 ], [ 696204.308145221904851, 4484784.345788357779384 ], [ 696204.428473999840207, 4484781.398243449628353 ], [ 696204.258477629511617, 4484781.397132556885481 ], [ 696204.138148851576261, 4484784.344677465036511 ] ] ] } },
{ "type": "Feature", "properties": { }, "geometry": { "type": "Polygon", "coordinates": [ [ [ 696204.308145221904851, 4484784.345788357779384 ], [ 696204.478141592233442, 4484784.346899250522256 ], [ 696204.598470370168798, 4484781.399354342371225 ], [ 696204.428473999840207, 4484781.398243449628353 ], [ 696204.308145221904851, 4484784.345788357779384 ] ] ] } },
{ "type": "Feature", "properties": { }, "geometry": { "type": "Polygon", "coordinates": [ [ [ 696204.478141592233442, 4484784.346899250522256 ], [ 696204.648137962562032, 4484784.348010143265128 ], [ 696204.768466740497388, 4484781.400465235114098 ], [ 696204.598470370168798, 4484781.399354342371225 ], [ 696204.478141592233442, 4484784.346899250522256 ] ] ] } }
]
}
