{"type": "FeatureCollection", "features": [{"type": "Feature", "geometry": {"type": "Polygon", "coordinates": [[[746224.704536, 3382200.328534], [746225.278612, 3382200.803057], [746230.215915, 3382195.132813], [746229.642253, 3382194.657874], [746224.704536, 3382200.328534]]]}, "properties": {}}, {"type": "Feature", "geometry": {"type": "Polygon", "coordinates": [[[746229.642253, 3382194.657874], [746230.215915, 3382195.132813], [746235.153216, 3382189.462567], [746234.579969, 3382188.987217], [746229.642253, 3382194.657874]]]}, "properties": {}}, {"type": "Feature", "geometry": {"type": "Polygon", "coordinates": [[[746234.579969, 3382188.987217], [746235.153216, 3382189.462567], [746240.090519, 3382183.792325], [746239.517689, 3382183.316554], [746234.579969, 3382188.987217]]]}, "properties": {}}, {"type": "Feature", "geometry": {"type": "Polygon", "coordinates": [[[746239.517689, 3382183.316554], [746240.090519, 3382183.792325], [746245.027824, 3382178.122077], [746244.455407, 3382177.645894], [746239.517689, 3382183.316554]]]}, "properties": {}}, {"type": "Feature", "geometry": {"type": "Polygon", "coordinates": [[[746225.278612, 3382200.803057], [746225.852687, 3382201.277584], [746230.789576, 3382195.607753], [746230.215915, 3382195.132813], [746225.278612, 3382200.803057]]]}, "properties": {}}, {"type": "Feature", "geometry": {"type": "Polygon", "coordinates": [[[746230.215915, 3382195.132813], [746230.789576, 3382195.607753], [746235.726464, 3382189.937926], [746235.153216, 3382189.462567], [746230.215915, 3382195.132813]]]}, "properties": {}}, {"type": "Feature", "geometry": {"type": "Polygon", "coordinates": [[[746235.153216, 3382189.462567], [746235.726464, 3382189.937926], [746240.663352, 3382184.268093], [746240.090519, 3382183.792325], [746235.153216, 3382189.462567]]]}, "properties": {}}, {"type": "Feature", "geometry": {"type": "Polygon", "coordinates": [[[746240.090519, 3382183.792325], [746240.663352, 3382184.268093], [746245.600238, 3382178.598264], [746245.027824, 3382178.122077], [746240.090519, 3382183.792325]]]}, "properties": {}}, {"type": "Feature", "geometry": {"type": "Polygon", "coordinates": [[[746225.852687, 3382201.277584], [746226.426764, 3382201.752111], [746231.363237, 3382196.082692], [746230.789576, 3382195.607753], [746225.852687, 3382201.277584]]]}, "properties": {}}, {"type": "Feature", "geometry": {"type": "Polygon", "coordinates": [[[746230.789576, 3382195.607753], [746231.363237, 3382196.082692], [746236.299709, 3382190.413279], [746235.726464, 3382189.937926], [746230.789576, 3382195.607753]]]}, "properties": {}}, {"type": "Feature", "geometry": {"type": "Polygon", "coordinates": [[[746235.726464, 3382189.937926], [746236.299709, 3382190.413279], [746241.236184, 3382184.743865], [746240.663352, 3382184.268093], [746235.726464, 3382189.937926]]]}, "properties": {}}, {"type": "Feature", "geometry": {"type": "Polygon", "coordinates": [[[746240.663352, 3382184.268093], [746241.236184, 3382184.743865], [746246.172656, 3382179.074447], [746245.600238, 3382178.598264], [746240.663352, 3382184.268093]]]}, "properties": {}}, {"type": "Feature", "geometry": {"type": "Polygon", "coordinates": [[[746226.426764, 3382201.752111], [746227.000839, 3382202.226633], [746231.936897, 3382196.557631], [746231.363237, 3382196.082692], [746226.426764, 3382201.752111]]]}, "properties": {}}, {"type": "Feature", "geometry": {"type": "Polygon", "coordinates": [[[746231.363237, 3382196.082692], [746231.936897, 3382196.557631], [746236.872954, 3382190.888632], [746236.299709, 3382190.413279], [746231.363237, 3382196.082692]]]}, "properties": {}}, {"type": "Feature", "geometry": {"type": "Polygon", "coordinates": [[[746236.299709, 3382190.413279], [746236.872954, 3382190.888632], [746241.809015, 3382185.21963], [746241.236184, 3382184.743865], [746236.299709, 3382190.413279]]]}, "properties": {}}, {"type": "Feature", "geometry": {"type": "Polygon", "coordinates": [[[746241.236184, 3382184.743865], [746241.809015, 3382185.21963], [746246.745072, 3382179.550631], [746246.172656, 3382179.074447], [746241.236184, 3382184.743865]]]}, "properties": {}}, {"type": "Feature", "geometry": {"type": "Polygon", "coordinates": [[[746227.000839, 3382202.226633], [746227.574915, 3382202.701159], [746232.510559, 3382197.032573], [746231.936897, 3382196.557631], [746227.000839, 3382202.226633]]]}, "properties": {}}, {"type": "Feature", "geometry": {"type": "Polygon", "coordinates": [[[746231.936897, 3382196.557631], [746232.510559, 3382197.032573], [746237.4462, 3382191.363991], [746236.872954, 3382190.888632], [746231.936897, 3382196.557631]]]}, "properties": {}}, {"type": "Feature", "geometry": {"type": "Polygon", "coordinates": [[[746236.872954, 3382190.888632], [746237.4462, 3382191.363991], [746242.381847, 3382185.695401], [746241.809015, 3382185.21963], [746236.872954, 3382190.888632]]]}, "properties": {}}, {"type": "Feature", "geometry": {"type": "Polygon", "coordinates": [[[746241.809015, 3382185.21963], [746242.381847, 3382185.695401], [746247.317488, 3382180.026817], [746246.745072, 3382179.550631], [746241.809015, 3382185.21963]]]}, "properties": {}}, {"type": "Feature", "geometry": {"type": "Polygon", "coordinates": [[[746227.574915, 3382202.701159], [746228.148992, 3382203.175684], [746233.08422, 3382197.507514], [746232.510559, 3382197.032573], [746227.574915, 3382202.701159]]]}, "properties": {}}, {"type": "Feature", "geometry": {"type": "Polygon", "coordinates": [[[746232.510559, 3382197.032573], [746233.08422, 3382197.507514], [746238.019448, 3382191.839344], [746237.4462, 3382191.363991], [746232.510559, 3382197.032573]]]}, "properties": {}}, {"type": "Feature", "geometry": {"type": "Polygon", "coordinates": [[[746237.4462, 3382191.363991], [746238.019448, 3382191.839344], [746242.95468, 3382186.17117], [746242.381847, 3382185.695401], [746237.4462, 3382191.363991]]]}, "properties": {}}, {"type": "Feature", "geometry": {"type": "Polygon", "coordinates": [[[746242.381847, 3382185.695401], [746242.95468, 3382186.17117], [746247.889907, 3382180.503001], [746247.317488, 3382180.026817], [746242.381847, 3382185.695401]]]}, "properties": {}}, {"type": "Feature", "geometry": {"type": "Polygon", "coordinates": [[[746228.148992, 3382203.175684], [746228.723068, 3382203.650209], [746233.657881, 3382197.982455], [746233.08422, 3382197.507514], [746228.148992, 3382203.175684]]]}, "properties": {}}, {"type": "Feature", "geometry": {"type": "Polygon", "coordinates": [[[746233.08422, 3382197.507514], [746233.657881, 3382197.982455], [746238.592695, 3382192.314699], [746238.019448, 3382191.839344], [746233.08422, 3382197.507514]]]}, "properties": {}}, {"type": "Feature", "geometry": {"type": "Polygon", "coordinates": [[[746238.019448, 3382191.839344], [746238.592695, 3382192.314699], [746243.527511, 3382186.646938], [746242.95468, 3382186.17117], [746238.019448, 3382191.839344]]]}, "properties": {}}, {"type": "Feature", "geometry": {"type": "Polygon", "coordinates": [[[746242.95468, 3382186.17117], [746243.527511, 3382186.646938], [746248.462322, 3382180.979187], [746247.889907, 3382180.503001], [746242.95468, 3382186.17117]]]}, "properties": {}}, {"type": "Feature", "geometry": {"type": "Polygon", "coordinates": [[[746228.723068, 3382203.650209], [746229.297143, 3382204.124735], [746234.231543, 3382198.457393], [746233.657881, 3382197.982455], [746228.723068, 3382203.650209]]]}, "properties": {}}, {"type": "Feature", "geometry": {"type": "Polygon", "coordinates": [[[746233.657881, 3382197.982455], [746234.231543, 3382198.457393], [746239.16594, 3382192.790055], [746238.592695, 3382192.314699], [746233.657881, 3382197.982455]]]}, "properties": {}}, {"type": "Feature", "geometry": {"type": "Polygon", "coordinates": [[[746238.592695, 3382192.314699], [746239.16594, 3382192.790055], [746244.100342, 3382187.122709], [746243.527511, 3382186.646938], [746238.592695, 3382192.314699]]]}, "properties": {}}, {"type": "Feature", "geometry": {"type": "Polygon", "coordinates": [[[746243.527511, 3382186.646938], [746244.100342, 3382187.122709], [746249.034743, 3382181.455365], [746248.462322, 3382180.979187], [746243.527511, 3382186.646938]]]}, "properties": {}}, {"type": "Feature", "geometry": {"type": "Polygon", "coordinates": [[[746229.297143, 3382204.124735], [746229.87122, 3382204.599261], [746234.805205, 3382198.932332], [746234.231543, 3382198.457393], [746229.297143, 3382204.124735]]]}, "properties": {}}, {"type": "Feature", "geometry": {"type": "Polygon", "coordinates": [[[746234.231543, 3382198.457393], [746234.805205, 3382198.932332], [746239.739189, 3382193.265409], [746239.16594, 3382192.790055], [746234.231543, 3382198.457393]]]}, "properties": {}}, {"type": "Feature", "geometry": {"type": "Polygon", "coordinates": [[[746239.16594, 3382192.790055], [746239.739189, 3382193.265409], [746244.673175, 3382187.59848], [746244.100342, 3382187.122709], [746239.16594, 3382192.790055]]]}, "properties": {}}, {"type": "Feature", "geometry": {"type": "Polygon", "coordinates": [[[746244.100342, 3382187.122709], [746244.673175, 3382187.59848], [746249.607156, 3382181.931555], [746249.034743, 3382181.455365], [746244.100342, 3382187.122709]]]}, "properties": {}}, {"type": "Feature", "geometry": {"type": "Polygon", "coordinates": [[[746229.87122, 3382204.599261], [746230.445295, 3382205.073785], [746235.378866, 3382199.407273], [746234.805205, 3382198.932332], [746229.87122, 3382204.599261]]]}, "properties": {}}, {"type": "Feature", "geometry": {"type": "Polygon", "coordinates": [[[746234.805205, 3382198.932332], [746235.378866, 3382199.407273], [746240.312434, 3382193.740762], [746239.739189, 3382193.265409], [746234.805205, 3382198.932332]]]}, "properties": {}}, {"type": "Feature", "geometry": {"type": "Polygon", "coordinates": [[[746239.739189, 3382193.265409], [746240.312434, 3382193.740762], [746245.246003, 3382188.074249], [746244.673175, 3382187.59848], [746239.739189, 3382193.265409]]]}, "properties": {}}, {"type": "Feature", "geometry": {"type": "Polygon", "coordinates": [[[746244.673175, 3382187.59848], [746245.246003, 3382188.074249], [746250.179573, 3382182.407738], [746249.607156, 3382181.931555], [746244.673175, 3382187.59848]]]}, "properties": {}}, {"type": "Feature", "geometry": {"type": "Polygon", "coordinates": [[[746230.445295, 3382205.073785], [746231.019371, 3382205.548312], [746235.952527, 3382199.882212], [746235.378866, 3382199.407273], [746230.445295, 3382205.073785]]]}, "properties": {}}, {"type": "Feature", "geometry": {"type": "Polygon", "coordinates": [[[746235.378866, 3382199.407273], [746235.952527, 3382199.882212], [746240.885681, 3382194.216117], [746240.312434, 3382193.740762], [746235.378866, 3382199.407273]]]}, "properties": {}}, {"type": "Feature", "geometry": {"type": "Polygon", "coordinates": [[[746240.312434, 3382193.740762], [746240.885681, 3382194.216117], [746245.818835, 3382188.55002], [746245.246003, 3382188.074249], [746240.312434, 3382193.740762]]]}, "properties": {}}, {"type": "Feature", "geometry": {"type": "Polygon", "coordinates": [[[746245.246003, 3382188.074249], [746245.818835, 3382188.55002], [746250.751992, 3382182.883922], [746250.179573, 3382182.407738], [746245.246003, 3382188.074249]]]}, "properties": {}}, {"type": "Feature", "geometry": {"type": "Polygon", "coordinates": [[[746231.019371, 3382205.548312], [746231.593448, 3382206.022837], [746236.526189, 3382200.357153], [746235.952527, 3382199.882212], [746231.019371, 3382205.548312]]]}, "properties": {}}, {"type": "Feature", "geometry": {"type": "Polygon", "coordinates": [[[746235.952527, 3382199.882212], [746236.526189, 3382200.357153], [746241.458926, 3382194.691473], [746240.885681, 3382194.216117], [746235.952527, 3382199.882212]]]}, "properties": {}}, {"type": "Feature", "geometry": {"type": "Polygon", "coordinates": [[[746240.885681, 3382194.216117], [746241.458926, 3382194.691473], [746246.391669, 3382189.025788], [746245.818835, 3382188.55002], [746240.885681, 3382194.216117]]]}, "properties": {}}, {"type": "Feature", "geometry": {"type": "Polygon", "coordinates": [[[746245.818835, 3382188.55002], [746246.391669, 3382189.025788], [746251.324408, 3382183.360105], [746250.751992, 3382182.883922], [746245.818835, 3382188.55002]]]}, "properties": {}}, {"type": "Feature", "geometry": {"type": "Polygon", "coordinates": [[[746231.593448, 3382206.022837], [746232.167524, 3382206.497362], [746237.099851, 3382200.832092], [746236.526189, 3382200.357153], [746231.593448, 3382206.022837]]]}, "properties": {}}, {"type": "Feature", "geometry": {"type": "Polygon", "coordinates": [[[746236.526189, 3382200.357153], [746237.099851, 3382200.832092], [746242.032173, 3382195.166827], [746241.458926, 3382194.691473], [746236.526189, 3382200.357153]]]}, "properties": {}}, {"type": "Feature", "geometry": {"type": "Polygon", "coordinates": [[[746241.458926, 3382194.691473], [746242.032173, 3382195.166827], [746246.964498, 3382189.50156], [746246.391669, 3382189.025788], [746241.458926, 3382194.691473]]]}, "properties": {}}, {"type": "Feature", "geometry": {"type": "Polygon", "coordinates": [[[746246.391669, 3382189.025788], [746246.964498, 3382189.50156], [746251.896827, 3382183.836286], [746251.324408, 3382183.360105], [746246.391669, 3382189.025788]]]}, "properties": {}}, {"type": "Feature", "geometry": {"type": "Polygon", "coordinates": [[[746232.167524, 3382206.497362], [746232.741601, 3382206.971886], [746237.67351, 3382201.307034], [746237.099851, 3382200.832092], [746232.167524, 3382206.497362]]]}, "properties": {}}, {"type": "Feature", "geometry": {"type": "Polygon", "coordinates": [[[746237.099851, 3382200.832092], [746237.67351, 3382201.307034], [746242.60542, 3382195.64218], [746242.032173, 3382195.166827], [746237.099851, 3382200.832092]]]}, "properties": {}}, {"type": "Feature", "geometry": {"type": "Polygon", "coordinates": [[[746242.032173, 3382195.166827], [746242.60542, 3382195.64218], [746247.537332, 3382189.977325], [746246.964498, 3382189.50156], [746242.032173, 3382195.166827]]]}, "properties": {}}, {"type": "Feature", "geometry": {"type": "Polygon", "coordinates": [[[746246.964498, 3382189.50156], [746247.537332, 3382189.977325], [746252.469241, 3382184.312475], [746251.896827, 3382183.836286], [746246.964498, 3382189.50156]]]}, "properties": {}}, {"type": "Feature", "geometry": {"type": "Polygon", "coordinates": [[[746232.741601, 3382206.971886], [746233.315676, 3382207.446412], [746238.247173, 3382201.781974], [746237.67351, 3382201.307034], [746232.741601, 3382206.971886]]]}, "properties": {}}, {"type": "Feature", "geometry": {"type": "Polygon", "coordinates": [[[746237.67351, 3382201.307034], [746238.247173, 3382201.781974], [746243.178668, 3382196.117536], [746242.60542, 3382195.64218], [746237.67351, 3382201.307034]]]}, "properties": {}}, {"type": "Feature", "geometry": {"type": "Polygon", "coordinates": [[[746242.60542, 3382195.64218], [746243.178668, 3382196.117536], [746248.110163, 3382190.453099], [746247.537332, 3382189.977325], [746242.60542, 3382195.64218]]]}, "properties": {}}, {"type": "Feature", "geometry": {"type": "Polygon", "coordinates": [[[746247.537332, 3382189.977325], [746248.110163, 3382190.453099], [746253.04166, 3382184.788659], [746252.469241, 3382184.312475], [746247.537332, 3382189.977325]]]}, "properties": {}}, {"type": "Feature", "geometry": {"type": "Polygon", "coordinates": [[[746233.315676, 3382207.446412], [746233.889752, 3382207.920937], [746238.820832, 3382202.256914], [746238.247173, 3382201.781974], [746233.315676, 3382207.446412]]]}, "properties": {}}, {"type": "Feature", "geometry": {"type": "Polygon", "coordinates": [[[746238.247173, 3382201.781974], [746238.820832, 3382202.256914], [746243.751913, 3382196.592891], [746243.178668, 3382196.117536], [746238.247173, 3382201.781974]]]}, "properties": {}}, {"type": "Feature", "geometry": {"type": "Polygon", "coordinates": [[[746243.178668, 3382196.117536], [746243.751913, 3382196.592891], [746248.682997, 3382190.928865], [746248.110163, 3382190.453099], [746243.178668, 3382196.117536]]]}, "properties": {}}, {"type": "Feature", "geometry": {"type": "Polygon", "coordinates": [[[746248.110163, 3382190.453099], [746248.682997, 3382190.928865], [746253.614076, 3382185.264843], [746253.04166, 3382184.788659], [746248.110163, 3382190.453099]]]}, "properties": {}}, {"type": "Feature", "geometry": {"type": "Polygon", "coordinates": [[[746233.889752, 3382207.920937], [746234.463827, 3382208.395463], [746239.394494, 3382202.731854], [746238.820832, 3382202.256914], [746233.889752, 3382207.920937]]]}, "properties": {}}, {"type": "Feature", "geometry": {"type": "Polygon", "coordinates": [[[746238.820832, 3382202.256914], [746239.394494, 3382202.731854], [746244.325157, 3382197.068247], [746243.751913, 3382196.592891], [746238.820832, 3382202.256914]]]}, "properties": {}}, {"type": "Feature", "geometry": {"type": "Polygon", "coordinates": [[[746243.751913, 3382196.592891], [746244.325157, 3382197.068247], [746249.255826, 3382191.404636], [746248.682997, 3382190.928865], [746243.751913, 3382196.592891]]]}, "properties": {}}, {"type": "Feature", "geometry": {"type": "Polygon", "coordinates": [[[746248.682997, 3382190.928865], [746249.255826, 3382191.404636], [746254.186493, 3382185.741026], [746253.614076, 3382185.264843], [746248.682997, 3382190.928865]]]}, "properties": {}}, {"type": "Feature", "geometry": {"type": "Polygon", "coordinates": [[[746234.463827, 3382208.395463], [746235.037904, 3382208.869988], [746239.968155, 3382203.206794], [746239.394494, 3382202.731854], [746234.463827, 3382208.395463]]]}, "properties": {}}, {"type": "Feature", "geometry": {"type": "Polygon", "coordinates": [[[746239.394494, 3382202.731854], [746239.968155, 3382203.206794], [746244.898405, 3382197.543601], [746244.325157, 3382197.068247], [746239.394494, 3382202.731854]]]}, "properties": {}}, {"type": "Feature", "geometry": {"type": "Polygon", "coordinates": [[[746244.325157, 3382197.068247], [746244.898405, 3382197.543601], [746249.828657, 3382191.880404], [746249.255826, 3382191.404636], [746244.325157, 3382197.068247]]]}, "properties": {}}, {"type": "Feature", "geometry": {"type": "Polygon", "coordinates": [[[746249.255826, 3382191.404636], [746249.828657, 3382191.880404], [746254.758909, 3382186.21721], [746254.186493, 3382185.741026], [746249.255826, 3382191.404636]]]}, "properties": {}}, {"type": "Feature", "geometry": {"type": "Polygon", "coordinates": [[[746235.037904, 3382208.869988], [746235.611981, 3382209.344513], [746240.541817, 3382203.681735], [746239.968155, 3382203.206794], [746235.037904, 3382208.869988]]]}, "properties": {}}, {"type": "Feature", "geometry": {"type": "Polygon", "coordinates": [[[746239.968155, 3382203.206794], [746240.541817, 3382203.681735], [746245.471652, 3382198.018956], [746244.898405, 3382197.543601], [746239.968155, 3382203.206794]]]}, "properties": {}}, {"type": "Feature", "geometry": {"type": "Polygon", "coordinates": [[[746244.898405, 3382197.543601], [746245.471652, 3382198.018956], [746250.401492, 3382192.356177], [746249.828657, 3382191.880404], [746244.898405, 3382197.543601]]]}, "properties": {}}, {"type": "Feature", "geometry": {"type": "Polygon", "coordinates": [[[746249.828657, 3382191.880404], [746250.401492, 3382192.356177], [746255.331325, 3382186.693399], [746254.758909, 3382186.21721], [746249.828657, 3382191.880404]]]}, "properties": {}}, {"type": "Feature", "geometry": {"type": "Polygon", "coordinates": [[[746235.611981, 3382209.344513], [746236.186055, 3382209.819039], [746241.115479, 3382204.156674], [746240.541817, 3382203.681735], [746235.611981, 3382209.344513]]]}, "properties": {}}, {"type": "Feature", "geometry": {"type": "Polygon", "coordinates": [[[746240.541817, 3382203.681735], [746241.115479, 3382204.156674], [746246.044899, 3382198.494311], [746245.471652, 3382198.018956], [746240.541817, 3382203.681735]]]}, "properties": {}}, {"type": "Feature", "geometry": {"type": "Polygon", "coordinates": [[[746245.471652, 3382198.018956], [746246.044899, 3382198.494311], [746250.97432, 3382192.831947], [746250.401492, 3382192.356177], [746245.471652, 3382198.018956]]]}, "properties": {}}, {"type": "Feature", "geometry": {"type": "Polygon", "coordinates": [[[746250.401492, 3382192.356177], [746250.97432, 3382192.831947], [746255.903742, 3382187.16958], [746255.331325, 3382186.693399], [746250.401492, 3382192.356177]]]}, "properties": {}}, {"type": "Feature", "geometry": {"type": "Polygon", "coordinates": [[[746236.186055, 3382209.819039], [746236.760133, 3382210.293564], [746241.68914, 3382204.631614], [746241.115479, 3382204.156674], [746236.186055, 3382209.819039]]]}, "properties": {}}, {"type": "Feature", "geometry": {"type": "Polygon", "coordinates": [[[746241.115479, 3382204.156674], [746241.68914, 3382204.631614], [746246.618147, 3382198.969665], [746246.044899, 3382198.494311], [746241.115479, 3382204.156674]]]}, "properties": {}}, {"type": "Feature", "geometry": {"type": "Polygon", "coordinates": [[[746246.044899, 3382198.494311], [746246.618147, 3382198.969665], [746251.547155, 3382193.307716], [746250.97432, 3382192.831947], [746246.044899, 3382198.494311]]]}, "properties": {}}, {"type": "Feature", "geometry": {"type": "Polygon", "coordinates": [[[746250.97432, 3382192.831947], [746251.547155, 3382193.307716], [746256.476161, 3382187.645766], [746255.903742, 3382187.16958], [746250.97432, 3382192.831947]]]}, "properties": {}}, {"type": "Feature", "geometry": {"type": "Polygon", "coordinates": [[[746236.760133, 3382210.293564], [746237.334208, 3382210.768089], [746242.262799, 3382205.106554], [746241.68914, 3382204.631614], [746236.760133, 3382210.293564]]]}, "properties": {}}, {"type": "Feature", "geometry": {"type": "Polygon", "coordinates": [[[746241.68914, 3382204.631614], [746242.262799, 3382205.106554], [746247.191391, 3382199.445021], [746246.618147, 3382198.969665], [746241.68914, 3382204.631614]]]}, "properties": {}}, {"type": "Feature", "geometry": {"type": "Polygon", "coordinates": [[[746246.618147, 3382198.969665], [746247.191391, 3382199.445021], [746252.119983, 3382193.783485], [746251.547155, 3382193.307716], [746246.618147, 3382198.969665]]]}, "properties": {}}, {"type": "Feature", "geometry": {"type": "Polygon", "coordinates": [[[746251.547155, 3382193.307716], [746252.119983, 3382193.783485], [746257.048574, 3382188.12195], [746256.476161, 3382187.645766], [746251.547155, 3382193.307716]]]}, "properties": {}}, {"type": "Feature", "geometry": {"type": "Polygon", "coordinates": [[[746237.334208, 3382210.768089], [746237.908284, 3382211.242615], [746242.836464, 3382205.581494], [746242.262799, 3382205.106554], [746237.334208, 3382210.768089]]]}, "properties": {}}, {"type": "Feature", "geometry": {"type": "Polygon", "coordinates": [[[746242.262799, 3382205.106554], [746242.836464, 3382205.581494], [746247.764638, 3382199.920378], [746247.191391, 3382199.445021], [746242.262799, 3382205.106554]]]}, "properties": {}}, {"type": "Feature", "geometry": {"type": "Polygon", "coordinates": [[[746247.191391, 3382199.445021], [746247.764638, 3382199.920378], [746252.692818, 3382194.259257], [746252.119983, 3382193.783485], [746247.191391, 3382199.445021]]]}, "properties": {}}, {"type": "Feature", "geometry": {"type": "Polygon", "coordinates": [[[746252.119983, 3382193.783485], [746252.692818, 3382194.259257], [746257.620996, 3382188.598134], [746257.048574, 3382188.12195], [746252.119983, 3382193.783485]]]}, "properties": {}}, {"type": "Feature", "geometry": {"type": "Polygon", "coordinates": [[[746237.908284, 3382211.242615], [746238.48236, 3382211.717139], [746243.410122, 3382206.056435], [746242.836464, 3382205.581494], [746237.908284, 3382211.242615]]]}, "properties": {}}, {"type": "Feature", "geometry": {"type": "Polygon", "coordinates": [[[746242.836464, 3382205.581494], [746243.410122, 3382206.056435], [746248.337885, 3382200.39573], [746247.764638, 3382199.920378], [746242.836464, 3382205.581494]]]}, "properties": {}}, {"type": "Feature", "geometry": {"type": "Polygon", "coordinates": [[[746247.764638, 3382199.920378], [746248.337885, 3382200.39573], [746253.265647, 3382194.735023], [746252.692818, 3382194.259257], [746247.764638, 3382199.920378]]]}, "properties": {}}, {"type": "Feature", "geometry": {"type": "Polygon", "coordinates": [[[746252.692818, 3382194.259257], [746253.265647, 3382194.735023], [746258.193407, 3382189.07432], [746257.620996, 3382188.598134], [746252.692818, 3382194.259257]]]}, "properties": {}}, {"type": "Feature", "geometry": {"type": "Polygon", "coordinates": [[[746238.48236, 3382211.717139], [746239.056436, 3382212.191665], [746243.983785, 3382206.531374], [746243.410122, 3382206.056435], [746238.48236, 3382211.717139]]]}, "properties": {}}, {"type": "Feature", "geometry": {"type": "Polygon", "coordinates": [[[746243.410122, 3382206.056435], [746243.983785, 3382206.531374], [746248.91113, 3382200.871083], [746248.337885, 3382200.39573], [746243.410122, 3382206.056435]]]}, "properties": {}}, {"type": "Feature", "geometry": {"type": "Polygon", "coordinates": [[[746248.337885, 3382200.39573], [746248.91113, 3382200.871083], [746253.838481, 3382195.210796], [746253.265647, 3382194.735023], [746248.337885, 3382200.39573]]]}, "properties": {}}, {"type": "Feature", "geometry": {"type": "Polygon", "coordinates": [[[746253.265647, 3382194.735023], [746253.838481, 3382195.210796], [746258.765826, 3382189.550504], [746258.193407, 3382189.07432], [746253.265647, 3382194.735023]]]}, "properties": {}}, {"type": "Feature", "geometry": {"type": "Polygon", "coordinates": [[[746239.056436, 3382212.191665], [746239.630511, 3382212.66619], [746244.557447, 3382207.006315], [746243.983785, 3382206.531374], [746239.056436, 3382212.191665]]]}, "properties": {}}, {"type": "Feature", "geometry": {"type": "Polygon", "coordinates": [[[746243.983785, 3382206.531374], [746244.557447, 3382207.006315], [746249.48438, 3382201.346438], [746248.91113, 3382200.871083], [746243.983785, 3382206.531374]]]}, "properties": {}}, {"type": "Feature", "geometry": {"type": "Polygon", "coordinates": [[[746248.91113, 3382200.871083], [746249.48438, 3382201.346438], [746254.41131, 3382195.686565], [746253.838481, 3382195.210796], [746248.91113, 3382200.871083]]]}, "properties": {}}, {"type": "Feature", "geometry": {"type": "Polygon", "coordinates": [[[746253.838481, 3382195.210796], [746254.41131, 3382195.686565], [746259.338245, 3382190.026687], [746258.765826, 3382189.550504], [746253.838481, 3382195.210796]]]}, "properties": {}}, {"type": "Feature", "geometry": {"type": "Polygon", "coordinates": [[[746239.630511, 3382212.66619], [746240.204589, 3382213.140716], [746245.131103, 3382207.481254], [746244.557447, 3382207.006315], [746239.630511, 3382212.66619]]]}, "properties": {}}, {"type": "Feature", "geometry": {"type": "Polygon", "coordinates": [[[746244.557447, 3382207.006315], [746245.131103, 3382207.481254], [746250.057627, 3382201.821795], [746249.48438, 3382201.346438], [746244.557447, 3382207.006315]]]}, "properties": {}}, {"type": "Feature", "geometry": {"type": "Polygon", "coordinates": [[[746249.48438, 3382201.346438], [746250.057627, 3382201.821795], [746254.984141, 3382196.162332], [746254.41131, 3382195.686565], [746249.48438, 3382201.346438]]]}, "properties": {}}, {"type": "Feature", "geometry": {"type": "Polygon", "coordinates": [[[746254.41131, 3382195.686565], [746254.984141, 3382196.162332], [746259.910659, 3382190.502874], [746259.338245, 3382190.026687], [746254.41131, 3382195.686565]]]}, "properties": {}}, {"type": "Feature", "geometry": {"type": "Polygon", "coordinates": [[[746240.204589, 3382213.140716], [746240.778663, 3382213.615241], [746245.70477, 3382207.956195], [746245.131103, 3382207.481254], [746240.204589, 3382213.140716]]]}, "properties": {}}, {"type": "Feature", "geometry": {"type": "Polygon", "coordinates": [[[746245.131103, 3382207.481254], [746245.70477, 3382207.956195], [746250.630868, 3382202.29715], [746250.057627, 3382201.821795], [746245.131103, 3382207.481254]]]}, "properties": {}}, {"type": "Feature", "geometry": {"type": "Polygon", "coordinates": [[[746250.057627, 3382201.821795], [746250.630868, 3382202.29715], [746255.556973, 3382196.638103], [746254.984141, 3382196.162332], [746250.057627, 3382201.821795]]]}, "properties": {}}, {"type": "Feature", "geometry": {"type": "Polygon", "coordinates": [[[746254.984141, 3382196.162332], [746255.556973, 3382196.638103], [746260.483078, 3382190.979057], [746259.910659, 3382190.502874], [746254.984141, 3382196.162332]]]}, "properties": {}}, {"type": "Feature", "geometry": {"type": "Polygon", "coordinates": [[[746240.778663, 3382213.615241], [746241.35274, 3382214.089766], [746246.278427, 3382208.431134], [746245.70477, 3382207.956195], [746240.778663, 3382213.615241]]]}, "properties": {}}, {"type": "Feature", "geometry": {"type": "Polygon", "coordinates": [[[746245.70477, 3382207.956195], [746246.278427, 3382208.431134], [746251.204114, 3382202.772503], [746250.630868, 3382202.29715], [746245.70477, 3382207.956195]]]}, "properties": {}}, {"type": "Feature", "geometry": {"type": "Polygon", "coordinates": [[[746250.630868, 3382202.29715], [746251.204114, 3382202.772503], [746256.129804, 3382197.113873], [746255.556973, 3382196.638103], [746250.630868, 3382202.29715]]]}, "properties": {}}, {"type": "Feature", "geometry": {"type": "Polygon", "coordinates": [[[746255.556973, 3382196.638103], [746256.129804, 3382197.113873], [746261.055494, 3382191.455241], [746260.483078, 3382190.979057], [746255.556973, 3382196.638103]]]}, "properties": {}}, {"type": "Feature", "geometry": {"type": "Polygon", "coordinates": [[[746241.35274, 3382214.089766], [746241.926816, 3382214.564292], [746246.852092, 3382208.906075], [746246.278427, 3382208.431134], [746241.35274, 3382214.089766]]]}, "properties": {}}, {"type": "Feature", "geometry": {"type": "Polygon", "coordinates": [[[746246.278427, 3382208.431134], [746246.852092, 3382208.906075], [746251.777364, 3382203.24786], [746251.204114, 3382202.772503], [746246.278427, 3382208.431134]]]}, "properties": {}}, {"type": "Feature", "geometry": {"type": "Polygon", "coordinates": [[[746251.204114, 3382202.772503], [746251.777364, 3382203.24786], [746256.702639, 3382197.589644], [746256.129804, 3382197.113873], [746251.204114, 3382202.772503]]]}, "properties": {}}, {"type": "Feature", "geometry": {"type": "Polygon", "coordinates": [[[746256.129804, 3382197.113873], [746256.702639, 3382197.589644], [746261.627911, 3382191.931424], [746261.055494, 3382191.455241], [746256.129804, 3382197.113873]]]}, "properties": {}}, {"type": "Feature", "geometry": {"type": "Polygon", "coordinates": [[[746241.926816, 3382214.564292], [746242.500892, 3382215.038817], [746247.425752, 3382209.381015], [746246.852092, 3382208.906075], [746241.926816, 3382214.564292]]]}, "properties": {}}, {"type": "Feature", "geometry": {"type": "Polygon", "coordinates": [[[746246.852092, 3382208.906075], [746247.425752, 3382209.381015], [746252.350611, 3382203.723213], [746251.777364, 3382203.24786], [746246.852092, 3382208.906075]]]}, "properties": {}}, {"type": "Feature", "geometry": {"type": "Polygon", "coordinates": [[[746251.777364, 3382203.24786], [746252.350611, 3382203.723213], [746257.275467, 3382198.065411], [746256.702639, 3382197.589644], [746251.777364, 3382203.24786]]]}, "properties": {}}, {"type": "Feature", "geometry": {"type": "Polygon", "coordinates": [[[746256.702639, 3382197.589644], [746257.275467, 3382198.065411], [746262.20033, 3382192.407608], [746261.627911, 3382191.931424], [746256.702639, 3382197.589644]]]}, "properties": {}}], "crs": {"type": "name", "properties": {"name": "EPSG:32614"}}}