{"type": "FeatureCollection", "features": [{"type": "Feature", "geometry": {"type": "Polygon", "coordinates": [[[746225.070019, 3382200.180374], [746225.635285, 3382200.652865], [746230.484264, 3382194.97109], [746229.918999, 3382194.495364], [746225.070019, 3382200.180374]]]}, "properties": {}}, {"type": "Feature", "geometry": {"type": "Polygon", "coordinates": [[[746229.918999, 3382194.495364], [746230.484264, 3382194.97109], [746235.333244, 3382189.289317], [746234.76798, 3382188.810351], [746229.918999, 3382194.495364]]]}, "properties": {}}, {"type": "Feature", "geometry": {"type": "Polygon", "coordinates": [[[746234.76798, 3382188.810351], [746235.333244, 3382189.289317], [746240.182224, 3382183.607539], [746239.616958, 3382183.125342], [746234.76798, 3382188.810351]]]}, "properties": {}}, {"type": "Feature", "geometry": {"type": "Polygon", "coordinates": [[[746239.616958, 3382183.125342], [746240.182224, 3382183.607539], [746245.031202, 3382177.925768], [746244.465938, 3382177.440329], [746239.616958, 3382183.125342]]]}, "properties": {}}, {"type": "Feature", "geometry": {"type": "Polygon", "coordinates": [[[746225.635285, 3382200.652865], [746226.200549, 3382201.125359], [746231.049529, 3382195.44682], [746230.484264, 3382194.97109], [746225.635285, 3382200.652865]]]}, "properties": {}}, {"type": "Feature", "geometry": {"type": "Polygon", "coordinates": [[[746230.484264, 3382194.97109], [746231.049529, 3382195.44682], [746235.898509, 3382189.768284], [746235.333244, 3382189.289317], [746230.484264, 3382194.97109]]]}, "properties": {}}, {"type": "Feature", "geometry": {"type": "Polygon", "coordinates": [[[746235.333244, 3382189.289317], [746235.898509, 3382189.768284], [746240.74749, 3382184.08974], [746240.182224, 3382183.607539], [746235.333244, 3382189.289317]]]}, "properties": {}}, {"type": "Feature", "geometry": {"type": "Polygon", "coordinates": [[[746240.182224, 3382183.607539], [746240.74749, 3382184.08974], [746245.596466, 3382178.411205], [746245.031202, 3382177.925768], [746240.182224, 3382183.607539]]]}, "properties": {}}, {"type": "Feature", "geometry": {"type": "Polygon", "coordinates": [[[746226.200549, 3382201.125359], [746226.765814, 3382201.597849], [746231.614793, 3382195.922549], [746231.049529, 3382195.44682], [746226.200549, 3382201.125359]]]}, "properties": {}}, {"type": "Feature", "geometry": {"type": "Polygon", "coordinates": [[[746231.049529, 3382195.44682], [746231.614793, 3382195.922549], [746236.463773, 3382190.247245], [746235.898509, 3382189.768284], [746231.049529, 3382195.44682]]]}, "properties": {}}, {"type": "Feature", "geometry": {"type": "Polygon", "coordinates": [[[746235.898509, 3382189.768284], [746236.463773, 3382190.247245], [746241.312752, 3382184.571945], [746240.74749, 3382184.08974], [746235.898509, 3382189.768284]]]}, "properties": {}}, {"type": "Feature", "geometry": {"type": "Polygon", "coordinates": [[[746240.74749, 3382184.08974], [746241.312752, 3382184.571945], [746246.161731, 3382178.896644], [746245.596466, 3382178.411205], [746240.74749, 3382184.08974]]]}, "properties": {}}, {"type": "Feature", "geometry": {"type": "Polygon", "coordinates": [[[746226.765814, 3382201.597849], [746227.331079, 3382202.070342], [746232.180059, 3382196.398278], [746231.614793, 3382195.922549], [746226.765814, 3382201.597849]]]}, "properties": {}}, {"type": "Feature", "geometry": {"type": "Polygon", "coordinates": [[[746231.614793, 3382195.922549], [746232.180059, 3382196.398278], [746237.029037, 3382190.726212], [746236.463773, 3382190.247245], [746231.614793, 3382195.922549]]]}, "properties": {}}, {"type": "Feature", "geometry": {"type": "Polygon", "coordinates": [[[746236.463773, 3382190.247245], [746237.029037, 3382190.726212], [746241.878017, 3382185.054143], [746241.312752, 3382184.571945], [746236.463773, 3382190.247245]]]}, "properties": {}}, {"type": "Feature", "geometry": {"type": "Polygon", "coordinates": [[[746241.312752, 3382184.571945], [746241.878017, 3382185.054143], [746246.726995, 3382179.382078], [746246.161731, 3382178.896644], [746241.312752, 3382184.571945]]]}, "properties": {}}, {"type": "Feature", "geometry": {"type": "Polygon", "coordinates": [[[746227.331079, 3382202.070342], [746227.896343, 3382202.542835], [746232.745323, 3382196.874005], [746232.180059, 3382196.398278], [746227.331079, 3382202.070342]]]}, "properties": {}}, {"type": "Feature", "geometry": {"type": "Polygon", "coordinates": [[[746232.180059, 3382196.398278], [746232.745323, 3382196.874005], [746237.594302, 3382191.205176], [746237.029037, 3382190.726212], [746232.180059, 3382196.398278]]]}, "properties": {}}, {"type": "Feature", "geometry": {"type": "Polygon", "coordinates": [[[746237.029037, 3382190.726212], [746237.594302, 3382191.205176], [746242.443283, 3382185.536345], [746241.878017, 3382185.054143], [746237.029037, 3382190.726212]]]}, "properties": {}}, {"type": "Feature", "geometry": {"type": "Polygon", "coordinates": [[[746241.878017, 3382185.054143], [746242.443283, 3382185.536345], [746247.292263, 3382179.86752], [746246.726995, 3382179.382078], [746241.878017, 3382185.054143]]]}, "properties": {}}, {"type": "Feature", "geometry": {"type": "Polygon", "coordinates": [[[746227.896343, 3382202.542835], [746228.461609, 3382203.015328], [746233.310588, 3382197.349735], [746232.745323, 3382196.874005], [746227.896343, 3382202.542835]]]}, "properties": {}}, {"type": "Feature", "geometry": {"type": "Polygon", "coordinates": [[[746232.745323, 3382196.874005], [746233.310588, 3382197.349735], [746238.159568, 3382191.68414], [746237.594302, 3382191.205176], [746232.745323, 3382196.874005]]]}, "properties": {}}, {"type": "Feature", "geometry": {"type": "Polygon", "coordinates": [[[746237.594302, 3382191.205176], [746238.159568, 3382191.68414], [746243.008546, 3382186.018547], [746242.443283, 3382185.536345], [746237.594302, 3382191.205176]]]}, "properties": {}}, {"type": "Feature", "geometry": {"type": "Polygon", "coordinates": [[[746242.443283, 3382185.536345], [746243.008546, 3382186.018547], [746247.857526, 3382180.352956], [746247.292263, 3382179.86752], [746242.443283, 3382185.536345]]]}, "properties": {}}, {"type": "Feature", "geometry": {"type": "Polygon", "coordinates": [[[746228.461609, 3382203.015328], [746229.026874, 3382203.487821], [746233.875853, 3382197.825462], [746233.310588, 3382197.349735], [746228.461609, 3382203.015328]]]}, "properties": {}}, {"type": "Feature", "geometry": {"type": "Polygon", "coordinates": [[[746233.310588, 3382197.349735], [746233.875853, 3382197.825462], [746238.724833, 3382192.163108], [746238.159568, 3382191.68414], [746233.310588, 3382197.349735]]]}, "properties": {}}, {"type": "Feature", "geometry": {"type": "Polygon", "coordinates": [[[746238.159568, 3382191.68414], [746238.724833, 3382192.163108], [746243.573813, 3382186.500748], [746243.008546, 3382186.018547], [746238.159568, 3382191.68414]]]}, "properties": {}}, {"type": "Feature", "geometry": {"type": "Polygon", "coordinates": [[[746243.008546, 3382186.018547], [746243.573813, 3382186.500748], [746248.422791, 3382180.838393], [746247.857526, 3382180.352956], [746243.008546, 3382186.018547]]]}, "properties": {}}, {"type": "Feature", "geometry": {"type": "Polygon", "coordinates": [[[746229.026874, 3382203.487821], [746229.592138, 3382203.960312], [746234.441118, 3382198.301193], [746233.875853, 3382197.825462], [746229.026874, 3382203.487821]]]}, "properties": {}}, {"type": "Feature", "geometry": {"type": "Polygon", "coordinates": [[[746233.875853, 3382197.825462], [746234.441118, 3382198.301193], [746239.290099, 3382192.642069], [746238.724833, 3382192.163108], [746233.875853, 3382197.825462]]]}, "properties": {}}, {"type": "Feature", "geometry": {"type": "Polygon", "coordinates": [[[746238.724833, 3382192.163108], [746239.290099, 3382192.642069], [746244.139077, 3382186.98295], [746243.573813, 3382186.500748], [746238.724833, 3382192.163108]]]}, "properties": {}}, {"type": "Feature", "geometry": {"type": "Polygon", "coordinates": [[[746243.573813, 3382186.500748], [746244.139077, 3382186.98295], [746248.988057, 3382181.323832], [746248.422791, 3382180.838393], [746243.573813, 3382186.500748]]]}, "properties": {}}, {"type": "Feature", "geometry": {"type": "Polygon", "coordinates": [[[746229.592138, 3382203.960312], [746230.157403, 3382204.432803], [746235.006383, 3382198.77692], [746234.441118, 3382198.301193], [746229.592138, 3382203.960312]]]}, "properties": {}}, {"type": "Feature", "geometry": {"type": "Polygon", "coordinates": [[[746234.441118, 3382198.301193], [746235.006383, 3382198.77692], [746239.855362, 3382193.121035], [746239.290099, 3382192.642069], [746234.441118, 3382198.301193]]]}, "properties": {}}, {"type": "Feature", "geometry": {"type": "Polygon", "coordinates": [[[746239.290099, 3382192.642069], [746239.855362, 3382193.121035], [746244.704342, 3382187.465149], [746244.139077, 3382186.98295], [746239.290099, 3382192.642069]]]}, "properties": {}}, {"type": "Feature", "geometry": {"type": "Polygon", "coordinates": [[[746244.139077, 3382186.98295], [746244.704342, 3382187.465149], [746249.553322, 3382181.809263], [746248.988057, 3382181.323832], [746244.139077, 3382186.98295]]]}, "properties": {}}, {"type": "Feature", "geometry": {"type": "Polygon", "coordinates": [[[746230.157403, 3382204.432803], [746230.722668, 3382204.905296], [746235.571648, 3382199.252648], [746235.006383, 3382198.77692], [746230.157403, 3382204.432803]]]}, "properties": {}}, {"type": "Feature", "geometry": {"type": "Polygon", "coordinates": [[[746235.006383, 3382198.77692], [746235.571648, 3382199.252648], [746240.420628, 3382193.600002], [746239.855362, 3382193.121035], [746235.006383, 3382198.77692]]]}, "properties": {}}, {"type": "Feature", "geometry": {"type": "Polygon", "coordinates": [[[746239.855362, 3382193.121035], [746240.420628, 3382193.600002], [746245.269607, 3382187.947351], [746244.704342, 3382187.465149], [746239.855362, 3382193.121035]]]}, "properties": {}}, {"type": "Feature", "geometry": {"type": "Polygon", "coordinates": [[[746244.704342, 3382187.465149], [746245.269607, 3382187.947351], [746250.118584, 3382182.294705], [746249.553322, 3382181.809263], [746244.704342, 3382187.465149]]]}, "properties": {}}, {"type": "Feature", "geometry": {"type": "Polygon", "coordinates": [[[746230.722668, 3382204.905296], [746231.287933, 3382205.377789], [746236.136913, 3382199.728379], [746235.571648, 3382199.252648], [746230.722668, 3382204.905296]]]}, "properties": {}}, {"type": "Feature", "geometry": {"type": "Polygon", "coordinates": [[[746235.571648, 3382199.252648], [746236.136913, 3382199.728379], [746240.985893, 3382194.078966], [746240.420628, 3382193.600002], [746235.571648, 3382199.252648]]]}, "properties": {}}, {"type": "Feature", "geometry": {"type": "Polygon", "coordinates": [[[746240.420628, 3382193.600002], [746240.985893, 3382194.078966], [746245.834872, 3382188.429552], [746245.269607, 3382187.947351], [746240.420628, 3382193.600002]]]}, "properties": {}}, {"type": "Feature", "geometry": {"type": "Polygon", "coordinates": [[[746245.269607, 3382187.947351], [746245.834872, 3382188.429552], [746250.683852, 3382182.780142], [746250.118584, 3382182.294705], [746245.269607, 3382187.947351]]]}, "properties": {}}, {"type": "Feature", "geometry": {"type": "Polygon", "coordinates": [[[746231.287933, 3382205.377789], [746231.853198, 3382205.850281], [746236.702177, 3382200.204106], [746236.136913, 3382199.728379], [746231.287933, 3382205.377789]]]}, "properties": {}}, {"type": "Feature", "geometry": {"type": "Polygon", "coordinates": [[[746236.136913, 3382199.728379], [746236.702177, 3382200.204106], [746241.551157, 3382194.557929], [746240.985893, 3382194.078966], [746236.136913, 3382199.728379]]]}, "properties": {}}, {"type": "Feature", "geometry": {"type": "Polygon", "coordinates": [[[746240.985893, 3382194.078966], [746241.551157, 3382194.557929], [746246.400137, 3382188.911754], [746245.834872, 3382188.429552], [746240.985893, 3382194.078966]]]}, "properties": {}}, {"type": "Feature", "geometry": {"type": "Polygon", "coordinates": [[[746245.834872, 3382188.429552], [746246.400137, 3382188.911754], [746251.249117, 3382183.265576], [746250.683852, 3382182.780142], [746245.834872, 3382188.429552]]]}, "properties": {}}, {"type": "Feature", "geometry": {"type": "Polygon", "coordinates": [[[746231.853198, 3382205.850281], [746232.418463, 3382206.322774], [746237.267443, 3382200.679834], [746236.702177, 3382200.204106], [746231.853198, 3382205.850281]]]}, "properties": {}}, {"type": "Feature", "geometry": {"type": "Polygon", "coordinates": [[[746236.702177, 3382200.204106], [746237.267443, 3382200.679834], [746242.116423, 3382195.036895], [746241.551157, 3382194.557929], [746236.702177, 3382200.204106]]]}, "properties": {}}, {"type": "Feature", "geometry": {"type": "Polygon", "coordinates": [[[746241.551157, 3382194.557929], [746242.116423, 3382195.036895], [746246.9654, 3382189.393956], [746246.400137, 3382188.911754], [746241.551157, 3382194.557929]]]}, "properties": {}}, {"type": "Feature", "geometry": {"type": "Polygon", "coordinates": [[[746246.400137, 3382188.911754], [746246.9654, 3382189.393956], [746251.814379, 3382183.751018], [746251.249117, 3382183.265576], [746246.400137, 3382188.911754]]]}, "properties": {}}, {"type": "Feature", "geometry": {"type": "Polygon", "coordinates": [[[746232.418463, 3382206.322774], [746232.983728, 3382206.795266], [746237.832706, 3382201.155563], [746237.267443, 3382200.679834], [746232.418463, 3382206.322774]]]}, "properties": {}}, {"type": "Feature", "geometry": {"type": "Polygon", "coordinates": [[[746237.267443, 3382200.679834], [746237.832706, 3382201.155563], [746242.681688, 3382195.51586], [746242.116423, 3382195.036895], [746237.267443, 3382200.679834]]]}, "properties": {}}, {"type": "Feature", "geometry": {"type": "Polygon", "coordinates": [[[746242.116423, 3382195.036895], [746242.681688, 3382195.51586], [746247.530668, 3382189.876157], [746246.9654, 3382189.393956], [746242.116423, 3382195.036895]]]}, "properties": {}}, {"type": "Feature", "geometry": {"type": "Polygon", "coordinates": [[[746246.9654, 3382189.393956], [746247.530668, 3382189.876157], [746252.379646, 3382184.236457], [746251.814379, 3382183.751018], [746246.9654, 3382189.393956]]]}, "properties": {}}, {"type": "Feature", "geometry": {"type": "Polygon", "coordinates": [[[746232.983728, 3382206.795266], [746233.548992, 3382207.267758], [746238.397971, 3382201.631292], [746237.832706, 3382201.155563], [746232.983728, 3382206.795266]]]}, "properties": {}}, {"type": "Feature", "geometry": {"type": "Polygon", "coordinates": [[[746237.832706, 3382201.155563], [746238.397971, 3382201.631292], [746243.246952, 3382195.994823], [746242.681688, 3382195.51586], [746237.832706, 3382201.155563]]]}, "properties": {}}, {"type": "Feature", "geometry": {"type": "Polygon", "coordinates": [[[746242.681688, 3382195.51586], [746243.246952, 3382195.994823], [746248.095928, 3382190.358356], [746247.530668, 3382189.876157], [746242.681688, 3382195.51586]]]}, "properties": {}}, {"type": "Feature", "geometry": {"type": "Polygon", "coordinates": [[[746247.530668, 3382189.876157], [746248.095928, 3382190.358356], [746252.944908, 3382184.721891], [746252.379646, 3382184.236457], [746247.530668, 3382189.876157]]]}, "properties": {}}, {"type": "Feature", "geometry": {"type": "Polygon", "coordinates": [[[746233.548992, 3382207.267758], [746234.114258, 3382207.740251], [746238.963236, 3382202.107021], [746238.397971, 3382201.631292], [746233.548992, 3382207.267758]]]}, "properties": {}}, {"type": "Feature", "geometry": {"type": "Polygon", "coordinates": [[[746238.397971, 3382201.631292], [746238.963236, 3382202.107021], [746243.812216, 3382196.473791], [746243.246952, 3382195.994823], [746238.397971, 3382201.631292]]]}, "properties": {}}, {"type": "Feature", "geometry": {"type": "Polygon", "coordinates": [[[746243.246952, 3382195.994823], [746243.812216, 3382196.473791], [746248.661194, 3382190.840558], [746248.095928, 3382190.358356], [746243.246952, 3382195.994823]]]}, "properties": {}}, {"type": "Feature", "geometry": {"type": "Polygon", "coordinates": [[[746248.095928, 3382190.358356], [746248.661194, 3382190.840558], [746253.510173, 3382185.20733], [746252.944908, 3382184.721891], [746248.095928, 3382190.358356]]]}, "properties": {}}, {"type": "Feature", "geometry": {"type": "Polygon", "coordinates": [[[746234.114258, 3382207.740251], [746234.679522, 3382208.212744], [746239.528502, 3382202.582749], [746238.963236, 3382202.107021], [746234.114258, 3382207.740251]]]}, "properties": {}}, {"type": "Feature", "geometry": {"type": "Polygon", "coordinates": [[[746238.963236, 3382202.107021], [746239.528502, 3382202.582749], [746244.377482, 3382196.952756], [746243.812216, 3382196.473791], [746238.963236, 3382202.107021]]]}, "properties": {}}, {"type": "Feature", "geometry": {"type": "Polygon", "coordinates": [[[746243.812216, 3382196.473791], [746244.377482, 3382196.952756], [746249.226462, 3382191.322759], [746248.661194, 3382190.840558], [746243.812216, 3382196.473791]]]}, "properties": {}}, {"type": "Feature", "geometry": {"type": "Polygon", "coordinates": [[[746248.661194, 3382190.840558], [746249.226462, 3382191.322759], [746254.075441, 3382185.692764], [746253.510173, 3382185.20733], [746248.661194, 3382190.840558]]]}, "properties": {}}, {"type": "Feature", "geometry": {"type": "Polygon", "coordinates": [[[746234.679522, 3382208.212744], [746235.244787, 3382208.685236], [746240.093765, 3382203.058477], [746239.528502, 3382202.582749], [746234.679522, 3382208.212744]]]}, "properties": {}}, {"type": "Feature", "geometry": {"type": "Polygon", "coordinates": [[[746239.528502, 3382202.582749], [746240.093765, 3382203.058477], [746244.942747, 3382197.431719], [746244.377482, 3382196.952756], [746239.528502, 3382202.582749]]]}, "properties": {}}, {"type": "Feature", "geometry": {"type": "Polygon", "coordinates": [[[746244.377482, 3382196.952756], [746244.942747, 3382197.431719], [746249.791724, 3382191.804961], [746249.226462, 3382191.322759], [746244.377482, 3382196.952756]]]}, "properties": {}}, {"type": "Feature", "geometry": {"type": "Polygon", "coordinates": [[[746249.226462, 3382191.322759], [746249.791724, 3382191.804961], [746254.640703, 3382186.178203], [746254.075441, 3382185.692764], [746249.226462, 3382191.322759]]]}, "properties": {}}, {"type": "Feature", "geometry": {"type": "Polygon", "coordinates": [[[746235.244787, 3382208.685236], [746235.810052, 3382209.157728], [746240.65903, 3382203.534206], [746240.093765, 3382203.058477], [746235.244787, 3382208.685236]]]}, "properties": {}}, {"type": "Feature", "geometry": {"type": "Polygon", "coordinates": [[[746240.093765, 3382203.058477], [746240.65903, 3382203.534206], [746245.508012, 3382197.910683], [746244.942747, 3382197.431719], [746240.093765, 3382203.058477]]]}, "properties": {}}, {"type": "Feature", "geometry": {"type": "Polygon", "coordinates": [[[746244.942747, 3382197.431719], [746245.508012, 3382197.910683], [746250.356989, 3382192.287164], [746249.791724, 3382191.804961], [746244.942747, 3382197.431719]]]}, "properties": {}}, {"type": "Feature", "geometry": {"type": "Polygon", "coordinates": [[[746249.791724, 3382191.804961], [746250.356989, 3382192.287164], [746255.205967, 3382186.66364], [746254.640703, 3382186.178203], [746249.791724, 3382191.804961]]]}, "properties": {}}, {"type": "Feature", "geometry": {"type": "Polygon", "coordinates": [[[746235.810052, 3382209.157728], [746236.375316, 3382209.630221], [746241.224296, 3382204.009935], [746240.65903, 3382203.534206], [746235.810052, 3382209.157728]]]}, "properties": {}}, {"type": "Feature", "geometry": {"type": "Polygon", "coordinates": [[[746240.65903, 3382203.534206], [746241.224296, 3382204.009935], [746246.073275, 3382198.389648], [746245.508012, 3382197.910683], [746240.65903, 3382203.534206]]]}, "properties": {}}, {"type": "Feature", "geometry": {"type": "Polygon", "coordinates": [[[746245.508012, 3382197.910683], [746246.073275, 3382198.389648], [746250.922254, 3382192.769364], [746250.356989, 3382192.287164], [746245.508012, 3382197.910683]]]}, "properties": {}}, {"type": "Feature", "geometry": {"type": "Polygon", "coordinates": [[[746250.356989, 3382192.287164], [746250.922254, 3382192.769364], [746255.771235, 3382187.149076], [746255.205967, 3382186.66364], [746250.356989, 3382192.287164]]]}, "properties": {}}, {"type": "Feature", "geometry": {"type": "Polygon", "coordinates": [[[746236.375316, 3382209.630221], [746236.940583, 3382210.102713], [746241.78956, 3382204.485665], [746241.224296, 3382204.009935], [746236.375316, 3382209.630221]]]}, "properties": {}}, {"type": "Feature", "geometry": {"type": "Polygon", "coordinates": [[[746241.224296, 3382204.009935], [746241.78956, 3382204.485665], [746246.638543, 3382198.868614], [746246.073275, 3382198.389648], [746241.224296, 3382204.009935]]]}, "properties": {}}, {"type": "Feature", "geometry": {"type": "Polygon", "coordinates": [[[746246.073275, 3382198.389648], [746246.638543, 3382198.868614], [746251.487518, 3382193.251565], [746250.922254, 3382192.769364], [746246.073275, 3382198.389648]]]}, "properties": {}}, {"type": "Feature", "geometry": {"type": "Polygon", "coordinates": [[[746250.922254, 3382192.769364], [746251.487518, 3382193.251565], [746256.3365, 3382187.634516], [746255.771235, 3382187.149076], [746250.922254, 3382192.769364]]]}, "properties": {}}, {"type": "Feature", "geometry": {"type": "Polygon", "coordinates": [[[746236.940583, 3382210.102713], [746237.505846, 3382210.575206], [746242.354825, 3382204.961392], [746241.78956, 3382204.485665], [746236.940583, 3382210.102713]]]}, "properties": {}}, {"type": "Feature", "geometry": {"type": "Polygon", "coordinates": [[[746241.78956, 3382204.485665], [746242.354825, 3382204.961392], [746247.203807, 3382199.347578], [746246.638543, 3382198.868614], [746241.78956, 3382204.485665]]]}, "properties": {}}, {"type": "Feature", "geometry": {"type": "Polygon", "coordinates": [[[746246.638543, 3382198.868614], [746247.203807, 3382199.347578], [746252.052783, 3382193.733766], [746251.487518, 3382193.251565], [746246.638543, 3382198.868614]]]}, "properties": {}}, {"type": "Feature", "geometry": {"type": "Polygon", "coordinates": [[[746251.487518, 3382193.251565], [746252.052783, 3382193.733766], [746256.901765, 3382188.119952], [746256.3365, 3382187.634516], [746251.487518, 3382193.251565]]]}, "properties": {}}, {"type": "Feature", "geometry": {"type": "Polygon", "coordinates": [[[746237.505846, 3382210.575206], [746238.071111, 3382211.047698], [746242.920091, 3382205.437121], [746242.354825, 3382204.961392], [746237.505846, 3382210.575206]]]}, "properties": {}}, {"type": "Feature", "geometry": {"type": "Polygon", "coordinates": [[[746242.354825, 3382204.961392], [746242.920091, 3382205.437121], [746247.769068, 3382199.826544], [746247.203807, 3382199.347578], [746242.354825, 3382204.961392]]]}, "properties": {}}, {"type": "Feature", "geometry": {"type": "Polygon", "coordinates": [[[746247.203807, 3382199.347578], [746247.769068, 3382199.826544], [746252.618051, 3382194.215965], [746252.052783, 3382193.733766], [746247.203807, 3382199.347578]]]}, "properties": {}}, {"type": "Feature", "geometry": {"type": "Polygon", "coordinates": [[[746252.052783, 3382193.733766], [746252.618051, 3382194.215965], [746257.467029, 3382188.605392], [746256.901765, 3382188.119952], [746252.052783, 3382193.733766]]]}, "properties": {}}, {"type": "Feature", "geometry": {"type": "Polygon", "coordinates": [[[746238.071111, 3382211.047698], [746238.636378, 3382211.52019], [746243.485356, 3382205.91285], [746242.920091, 3382205.437121], [746238.071111, 3382211.047698]]]}, "properties": {}}, {"type": "Feature", "geometry": {"type": "Polygon", "coordinates": [[[746242.920091, 3382205.437121], [746243.485356, 3382205.91285], [746248.334336, 3382200.305507], [746247.769068, 3382199.826544], [746242.920091, 3382205.437121]]]}, "properties": {}}, {"type": "Feature", "geometry": {"type": "Polygon", "coordinates": [[[746247.769068, 3382199.826544], [746248.334336, 3382200.305507], [746253.183313, 3382194.69817], [746252.618051, 3382194.215965], [746247.769068, 3382199.826544]]]}, "properties": {}}, {"type": "Feature", "geometry": {"type": "Polygon", "coordinates": [[[746252.618051, 3382194.215965], [746253.183313, 3382194.69817], [746258.032294, 3382189.090828], [746257.467029, 3382188.605392], [746252.618051, 3382194.215965]]]}, "properties": {}}, {"type": "Feature", "geometry": {"type": "Polygon", "coordinates": [[[746238.636378, 3382211.52019], [746239.201642, 3382211.992682], [746244.05062, 3382206.388578], [746243.485356, 3382205.91285], [746238.636378, 3382211.52019]]]}, "properties": {}}, {"type": "Feature", "geometry": {"type": "Polygon", "coordinates": [[[746243.485356, 3382205.91285], [746244.05062, 3382206.388578], [746248.899602, 3382200.784472], [746248.334336, 3382200.305507], [746243.485356, 3382205.91285]]]}, "properties": {}}, {"type": "Feature", "geometry": {"type": "Polygon", "coordinates": [[[746248.334336, 3382200.305507], [746248.899602, 3382200.784472], [746253.748578, 3382195.180371], [746253.183313, 3382194.69817], [746248.334336, 3382200.305507]]]}, "properties": {}}, {"type": "Feature", "geometry": {"type": "Polygon", "coordinates": [[[746253.183313, 3382194.69817], [746253.748578, 3382195.180371], [746258.597562, 3382189.576262], [746258.032294, 3382189.090828], [746253.183313, 3382194.69817]]]}, "properties": {}}, {"type": "Feature", "geometry": {"type": "Polygon", "coordinates": [[[746239.201642, 3382211.992682], [746239.766908, 3382212.465175], [746244.615888, 3382206.864307], [746244.05062, 3382206.388578], [746239.201642, 3382211.992682]]]}, "properties": {}}, {"type": "Feature", "geometry": {"type": "Polygon", "coordinates": [[[746244.05062, 3382206.388578], [746244.615888, 3382206.864307], [746249.464867, 3382201.263439], [746248.899602, 3382200.784472], [746244.05062, 3382206.388578]]]}, "properties": {}}, {"type": "Feature", "geometry": {"type": "Polygon", "coordinates": [[[746248.899602, 3382200.784472], [746249.464867, 3382201.263439], [746254.313845, 3382195.66257], [746253.748578, 3382195.180371], [746248.899602, 3382200.784472]]]}, "properties": {}}, {"type": "Feature", "geometry": {"type": "Polygon", "coordinates": [[[746253.748578, 3382195.180371], [746254.313845, 3382195.66257], [746259.162824, 3382190.061704], [746258.597562, 3382189.576262], [746253.748578, 3382195.180371]]]}, "properties": {}}, {"type": "Feature", "geometry": {"type": "Polygon", "coordinates": [[[746239.766908, 3382212.465175], [746240.332171, 3382212.937667], [746245.181151, 3382207.340036], [746244.615888, 3382206.864307], [746239.766908, 3382212.465175]]]}, "properties": {}}, {"type": "Feature", "geometry": {"type": "Polygon", "coordinates": [[[746244.615888, 3382206.864307], [746245.181151, 3382207.340036], [746250.030131, 3382201.742403], [746249.464867, 3382201.263439], [746244.615888, 3382206.864307]]]}, "properties": {}}, {"type": "Feature", "geometry": {"type": "Polygon", "coordinates": [[[746249.464867, 3382201.263439], [746250.030131, 3382201.742403], [746254.879107, 3382196.144773], [746254.313845, 3382195.66257], [746249.464867, 3382201.263439]]]}, "properties": {}}, {"type": "Feature", "geometry": {"type": "Polygon", "coordinates": [[[746254.313845, 3382195.66257], [746254.879107, 3382196.144773], [746259.728089, 3382190.547141], [746259.162824, 3382190.061704], [746254.313845, 3382195.66257]]]}, "properties": {}}, {"type": "Feature", "geometry": {"type": "Polygon", "coordinates": [[[746240.332171, 3382212.937667], [746240.897435, 3382213.410159], [746245.746415, 3382207.815764], [746245.181151, 3382207.340036], [746240.332171, 3382212.937667]]]}, "properties": {}}, {"type": "Feature", "geometry": {"type": "Polygon", "coordinates": [[[746245.181151, 3382207.340036], [746245.746415, 3382207.815764], [746250.595396, 3382202.221369], [746250.030131, 3382201.742403], [746245.181151, 3382207.340036]]]}, "properties": {}}, {"type": "Feature", "geometry": {"type": "Polygon", "coordinates": [[[746250.030131, 3382201.742403], [746250.595396, 3382202.221369], [746255.444375, 3382196.626972], [746254.879107, 3382196.144773], [746250.030131, 3382201.742403]]]}, "properties": {}}, {"type": "Feature", "geometry": {"type": "Polygon", "coordinates": [[[746254.879107, 3382196.144773], [746255.444375, 3382196.626972], [746260.293356, 3382191.032577], [746259.728089, 3382190.547141], [746254.879107, 3382196.144773]]]}, "properties": {}}, {"type": "Feature", "geometry": {"type": "Polygon", "coordinates": [[[746240.897435, 3382213.410159], [746241.462701, 3382213.882651], [746246.31168, 3382208.291493], [746245.746415, 3382207.815764], [746240.897435, 3382213.410159]]]}, "properties": {}}, {"type": "Feature", "geometry": {"type": "Polygon", "coordinates": [[[746245.746415, 3382207.815764], [746246.31168, 3382208.291493], [746251.160658, 3382202.700334], [746250.595396, 3382202.221369], [746245.746415, 3382207.815764]]]}, "properties": {}}, {"type": "Feature", "geometry": {"type": "Polygon", "coordinates": [[[746250.595396, 3382202.221369], [746251.160658, 3382202.700334], [746256.00964, 3382197.109174], [746255.444375, 3382196.626972], [746250.595396, 3382202.221369]]]}, "properties": {}}, {"type": "Feature", "geometry": {"type": "Polygon", "coordinates": [[[746255.444375, 3382196.626972], [746256.00964, 3382197.109174], [746260.858618, 3382191.518017], [746260.293356, 3382191.032577], [746255.444375, 3382196.626972]]]}, "properties": {}}, {"type": "Feature", "geometry": {"type": "Polygon", "coordinates": [[[746241.462701, 3382213.882651], [746242.027967, 3382214.355145], [746246.876946, 3382208.767222], [746246.31168, 3382208.291493], [746241.462701, 3382213.882651]]]}, "properties": {}}, {"type": "Feature", "geometry": {"type": "Polygon", "coordinates": [[[746246.31168, 3382208.291493], [746246.876946, 3382208.767222], [746251.725926, 3382203.179299], [746251.160658, 3382202.700334], [746246.31168, 3382208.291493]]]}, "properties": {}}, {"type": "Feature", "geometry": {"type": "Polygon", "coordinates": [[[746251.160658, 3382202.700334], [746251.725926, 3382203.179299], [746256.574905, 3382197.591375], [746256.00964, 3382197.109174], [746251.160658, 3382202.700334]]]}, "properties": {}}, {"type": "Feature", "geometry": {"type": "Polygon", "coordinates": [[[746256.00964, 3382197.109174], [746256.574905, 3382197.591375], [746261.423886, 3382192.003452], [746260.858618, 3382191.518017], [746256.00964, 3382197.109174]]]}, "properties": {}}, {"type": "Feature", "geometry": {"type": "Polygon", "coordinates": [[[746242.027967, 3382214.355145], [746242.593231, 3382214.827637], [746247.442209, 3382209.24295], [746246.876946, 3382208.767222], [746242.027967, 3382214.355145]]]}, "properties": {}}, {"type": "Feature", "geometry": {"type": "Polygon", "coordinates": [[[746246.876946, 3382208.767222], [746247.442209, 3382209.24295], [746252.291188, 3382203.658261], [746251.725926, 3382203.179299], [746246.876946, 3382208.767222]]]}, "properties": {}}, {"type": "Feature", "geometry": {"type": "Polygon", "coordinates": [[[746251.725926, 3382203.179299], [746252.291188, 3382203.658261], [746257.140167, 3382198.073576], [746256.574905, 3382197.591375], [746251.725926, 3382203.179299]]]}, "properties": {}}, {"type": "Feature", "geometry": {"type": "Polygon", "coordinates": [[[746256.574905, 3382197.591375], [746257.140167, 3382198.073576], [746261.989148, 3382192.48889], [746261.423886, 3382192.003452], [746256.574905, 3382197.591375]]]}, "properties": {}}], "crs": {"type": "name", "properties": {"name": "EPSG:32614"}}}