{"type": "FeatureCollection", "features": [{"type": "Feature", "geometry": {"type": "Polygon", "coordinates": [[[720626.521961, 4302962.922167], [720627.040579, 4302963.475359], [720627.683706, 4302962.865161], [720627.164883, 4302962.306412], [720626.521961, 4302962.922167]]]}, "properties": {}}, {"type": "Feature", "geometry": {"type": "Polygon", "coordinates": [[[720627.255435, 4302962.229442], [720627.771583, 4302962.759173], [720628.260566, 4302962.256607], [720627.771583, 4302961.740459], [720627.255435, 4302962.229442]]]}, "properties": {}}, {"type": "Feature", "geometry": {"type": "Polygon", "coordinates": [[[720627.807804, 4302961.690655], [720628.326834, 4302962.254961], [720628.969962, 4302961.644762], [720628.450726, 4302961.074899], [720627.807804, 4302961.690655]]]}, "properties": {}}, {"type": "Feature", "geometry": {"type": "Polygon", "coordinates": [[[720628.450726, 4302961.074899], [720628.969962, 4302961.644762], [720629.613089, 4302961.034562], [720629.093648, 4302960.459144], [720628.450726, 4302961.074899]]]}, "properties": {}}, {"type": "Feature", "geometry": {"type": "Polygon", "coordinates": [[[720629.093648, 4302960.459144], [720629.613089, 4302961.034562], [720630.256217, 4302960.424363], [720629.73657, 4302959.843387], [720629.093648, 4302960.459144]]]}, "properties": {}}, {"type": "Feature", "geometry": {"type": "Polygon", "coordinates": [[[720629.73657, 4302959.843387], [720630.256217, 4302960.424363], [720630.899344, 4302959.814163], [720630.379491, 4302959.22763], [720629.73657, 4302959.843387]]]}, "properties": {}}, {"type": "Feature", "geometry": {"type": "Polygon", "coordinates": [[[720627.040579, 4302963.475359], [720627.559197, 4302964.028552], [720628.20253, 4302963.42391], [720627.683706, 4302962.865161], [720627.040579, 4302963.475359]]]}, "properties": {}}, {"type": "Feature", "geometry": {"type": "Polygon", "coordinates": [[[720627.683706, 4302962.865161], [720628.20253, 4302963.42391], [720628.845864, 4302962.819266], [720628.326834, 4302962.254961], [720627.683706, 4302962.865161]]]}, "properties": {}}, {"type": "Feature", "geometry": {"type": "Polygon", "coordinates": [[[720628.326834, 4302962.254961], [720628.845864, 4302962.819266], [720629.489197, 4302962.214624], [720628.969962, 4302961.644762], [720628.326834, 4302962.254961]]]}, "properties": {}}, {"type": "Feature", "geometry": {"type": "Polygon", "coordinates": [[[720628.969962, 4302961.644762], [720629.489197, 4302962.214624], [720630.13253, 4302961.609981], [720629.613089, 4302961.034562], [720628.969962, 4302961.644762]]]}, "properties": {}}, {"type": "Feature", "geometry": {"type": "Polygon", "coordinates": [[[720629.613089, 4302961.034562], [720630.13253, 4302961.609981], [720630.775863, 4302961.005338], [720630.256217, 4302960.424363], [720629.613089, 4302961.034562]]]}, "properties": {}}, {"type": "Feature", "geometry": {"type": "Polygon", "coordinates": [[[720630.256217, 4302960.424363], [720630.775863, 4302961.005338], [720631.419196, 4302960.400695], [720630.899344, 4302959.814163], [720630.256217, 4302960.424363]]]}, "properties": {}}, {"type": "Feature", "geometry": {"type": "Polygon", "coordinates": [[[720627.559197, 4302964.028552], [720628.077815, 4302964.581745], [720628.721354, 4302963.982659], [720628.20253, 4302963.42391], [720627.559197, 4302964.028552]]]}, "properties": {}}, {"type": "Feature", "geometry": {"type": "Polygon", "coordinates": [[[720628.20253, 4302963.42391], [720628.721354, 4302963.982659], [720629.364893, 4302963.383572], [720628.845864, 4302962.819266], [720628.20253, 4302963.42391]]]}, "properties": {}}, {"type": "Feature", "geometry": {"type": "Polygon", "coordinates": [[[720628.845864, 4302962.819266], [720629.364893, 4302963.383572], [720630.008432, 4302962.784486], [720629.489197, 4302962.214624], [720628.845864, 4302962.819266]]]}, "properties": {}}, {"type": "Feature", "geometry": {"type": "Polygon", "coordinates": [[[720629.489197, 4302962.214624], [720630.008432, 4302962.784486], [720630.651972, 4302962.1854], [720630.13253, 4302961.609981], [720629.489197, 4302962.214624]]]}, "properties": {}}, {"type": "Feature", "geometry": {"type": "Polygon", "coordinates": [[[720630.13253, 4302961.609981], [720630.651972, 4302962.1854], [720631.295511, 4302961.586314], [720630.775863, 4302961.005338], [720630.13253, 4302961.609981]]]}, "properties": {}}, {"type": "Feature", "geometry": {"type": "Polygon", "coordinates": [[[720630.775863, 4302961.005338], [720631.295511, 4302961.586314], [720631.93905, 4302960.987228], [720631.419196, 4302960.400695], [720630.775863, 4302961.005338]]]}, "properties": {}}, {"type": "Feature", "geometry": {"type": "Polygon", "coordinates": [[[720628.077815, 4302964.581745], [720628.596433, 4302965.134937], [720629.240178, 4302964.541408], [720628.721354, 4302963.982659], [720628.077815, 4302964.581745]]]}, "properties": {}}, {"type": "Feature", "geometry": {"type": "Polygon", "coordinates": [[[720628.721354, 4302963.982659], [720629.240178, 4302964.541408], [720629.883923, 4302963.947878], [720629.364893, 4302963.383572], [720628.721354, 4302963.982659]]]}, "properties": {}}, {"type": "Feature", "geometry": {"type": "Polygon", "coordinates": [[[720629.364893, 4302963.383572], [720629.883923, 4302963.947878], [720630.527668, 4302963.354348], [720630.008432, 4302962.784486], [720629.364893, 4302963.383572]]]}, "properties": {}}, {"type": "Feature", "geometry": {"type": "Polygon", "coordinates": [[[720630.008432, 4302962.784486], [720630.527668, 4302963.354348], [720631.171413, 4302962.760819], [720630.651972, 4302962.1854], [720630.008432, 4302962.784486]]]}, "properties": {}}, {"type": "Feature", "geometry": {"type": "Polygon", "coordinates": [[[720630.651972, 4302962.1854], [720631.171413, 4302962.760819], [720631.815158, 4302962.16729], [720631.295511, 4302961.586314], [720630.651972, 4302962.1854]]]}, "properties": {}}, {"type": "Feature", "geometry": {"type": "Polygon", "coordinates": [[[720631.295511, 4302961.586314], [720631.815158, 4302962.16729], [720632.458903, 4302961.57376], [720631.93905, 4302960.987228], [720631.295511, 4302961.586314]]]}, "properties": {}}, {"type": "Feature", "geometry": {"type": "Polygon", "coordinates": [[[720628.596433, 4302965.134937], [720629.115051, 4302965.68813], [720629.759001, 4302965.100158], [720629.240178, 4302964.541408], [720628.596433, 4302965.134937]]]}, "properties": {}}, {"type": "Feature", "geometry": {"type": "Polygon", "coordinates": [[[720629.240178, 4302964.541408], [720629.759001, 4302965.100158], [720630.402953, 4302964.512184], [720629.883923, 4302963.947878], [720629.240178, 4302964.541408]]]}, "properties": {}}, {"type": "Feature", "geometry": {"type": "Polygon", "coordinates": [[[720629.883923, 4302963.947878], [720630.402953, 4302964.512184], [720631.046903, 4302963.924211], [720630.527668, 4302963.354348], [720629.883923, 4302963.947878]]]}, "properties": {}}, {"type": "Feature", "geometry": {"type": "Polygon", "coordinates": [[[720630.527668, 4302963.354348], [720631.046903, 4302963.924211], [720631.690854, 4302963.336239], [720631.171413, 4302962.760819], [720630.527668, 4302963.354348]]]}, "properties": {}}, {"type": "Feature", "geometry": {"type": "Polygon", "coordinates": [[[720631.171413, 4302962.760819], [720631.690854, 4302963.336239], [720632.334805, 4302962.748265], [720631.815158, 4302962.16729], [720631.171413, 4302962.760819]]]}, "properties": {}}, {"type": "Feature", "geometry": {"type": "Polygon", "coordinates": [[[720631.815158, 4302962.16729], [720632.334805, 4302962.748265], [720632.978755, 4302962.160292], [720632.458903, 4302961.57376], [720631.815158, 4302962.16729]]]}, "properties": {}}, {"type": "Feature", "geometry": {"type": "Polygon", "coordinates": [[[720629.115051, 4302965.68813], [720629.633669, 4302966.241323], [720630.277825, 4302965.658906], [720629.759001, 4302965.100158], [720629.115051, 4302965.68813]]]}, "properties": {}}, {"type": "Feature", "geometry": {"type": "Polygon", "coordinates": [[[720629.759001, 4302965.100158], [720630.277825, 4302965.658906], [720630.921982, 4302965.07649], [720630.402953, 4302964.512184], [720629.759001, 4302965.100158]]]}, "properties": {}}, {"type": "Feature", "geometry": {"type": "Polygon", "coordinates": [[[720630.402953, 4302964.512184], [720630.921982, 4302965.07649], [720631.566139, 4302964.494074], [720631.046903, 4302963.924211], [720630.402953, 4302964.512184]]]}, "properties": {}}, {"type": "Feature", "geometry": {"type": "Polygon", "coordinates": [[[720631.046903, 4302963.924211], [720631.566139, 4302964.494074], [720632.210295, 4302963.911657], [720631.690854, 4302963.336239], [720631.046903, 4302963.924211]]]}, "properties": {}}, {"type": "Feature", "geometry": {"type": "Polygon", "coordinates": [[[720631.690854, 4302963.336239], [720632.210295, 4302963.911657], [720632.854452, 4302963.32924], [720632.334805, 4302962.748265], [720631.690854, 4302963.336239]]]}, "properties": {}}, {"type": "Feature", "geometry": {"type": "Polygon", "coordinates": [[[720632.334805, 4302962.748265], [720632.854452, 4302963.32924], [720633.498609, 4302962.746825], [720632.978755, 4302962.160292], [720632.334805, 4302962.748265]]]}, "properties": {}}, {"type": "Feature", "geometry": {"type": "Polygon", "coordinates": [[[720629.633669, 4302966.241323], [720630.152287, 4302966.794515], [720630.796649, 4302966.217656], [720630.277825, 4302965.658906], [720629.633669, 4302966.241323]]]}, "properties": {}}, {"type": "Feature", "geometry": {"type": "Polygon", "coordinates": [[[720630.277825, 4302965.658906], [720630.796649, 4302966.217656], [720631.441012, 4302965.640796], [720630.921982, 4302965.07649], [720630.277825, 4302965.658906]]]}, "properties": {}}, {"type": "Feature", "geometry": {"type": "Polygon", "coordinates": [[[720630.921982, 4302965.07649], [720631.441012, 4302965.640796], [720632.085374, 4302965.063936], [720631.566139, 4302964.494074], [720630.921982, 4302965.07649]]]}, "properties": {}}, {"type": "Feature", "geometry": {"type": "Polygon", "coordinates": [[[720631.566139, 4302964.494074], [720632.085374, 4302965.063936], [720632.729737, 4302964.487077], [720632.210295, 4302963.911657], [720631.566139, 4302964.494074]]]}, "properties": {}}, {"type": "Feature", "geometry": {"type": "Polygon", "coordinates": [[[720632.210295, 4302963.911657], [720632.729737, 4302964.487077], [720633.3741, 4302963.910216], [720632.854452, 4302963.32924], [720632.210295, 4302963.911657]]]}, "properties": {}}, {"type": "Feature", "geometry": {"type": "Polygon", "coordinates": [[[720632.854452, 4302963.32924], [720633.3741, 4302963.910216], [720634.018462, 4302963.333357], [720633.498609, 4302962.746825], [720632.854452, 4302963.32924]]]}, "properties": {}}, {"type": "Feature", "geometry": {"type": "Polygon", "coordinates": [[[720630.152287, 4302966.794515], [720630.670905, 4302967.347708], [720631.315473, 4302966.776405], [720630.796649, 4302966.217656], [720630.152287, 4302966.794515]]]}, "properties": {}}, {"type": "Feature", "geometry": {"type": "Polygon", "coordinates": [[[720630.796649, 4302966.217656], [720631.315473, 4302966.776405], [720631.960042, 4302966.205102], [720631.441012, 4302965.640796], [720630.796649, 4302966.217656]]]}, "properties": {}}, {"type": "Feature", "geometry": {"type": "Polygon", "coordinates": [[[720631.441012, 4302965.640796], [720631.960042, 4302966.205102], [720632.60461, 4302965.633799], [720632.085374, 4302965.063936], [720631.441012, 4302965.640796]]]}, "properties": {}}, {"type": "Feature", "geometry": {"type": "Polygon", "coordinates": [[[720632.085374, 4302965.063936], [720632.60461, 4302965.633799], [720633.249178, 4302965.062495], [720632.729737, 4302964.487077], [720632.085374, 4302965.063936]]]}, "properties": {}}, {"type": "Feature", "geometry": {"type": "Polygon", "coordinates": [[[720632.729737, 4302964.487077], [720633.249178, 4302965.062495], [720633.893747, 4302964.491191], [720633.3741, 4302963.910216], [720632.729737, 4302964.487077]]]}, "properties": {}}, {"type": "Feature", "geometry": {"type": "Polygon", "coordinates": [[[720633.3741, 4302963.910216], [720633.893747, 4302964.491191], [720634.538314, 4302963.919889], [720634.018462, 4302963.333357], [720633.3741, 4302963.910216]]]}, "properties": {}}, {"type": "Feature", "geometry": {"type": "Polygon", "coordinates": [[[720630.670905, 4302967.347708], [720631.189523, 4302967.900901], [720631.834297, 4302967.335154], [720631.315473, 4302966.776405], [720630.670905, 4302967.347708]]]}, "properties": {}}, {"type": "Feature", "geometry": {"type": "Polygon", "coordinates": [[[720631.315473, 4302966.776405], [720631.834297, 4302967.335154], [720632.479072, 4302966.769407], [720631.960042, 4302966.205102], [720631.315473, 4302966.776405]]]}, "properties": {}}, {"type": "Feature", "geometry": {"type": "Polygon", "coordinates": [[[720631.960042, 4302966.205102], [720632.479072, 4302966.769407], [720633.123845, 4302966.203661], [720632.60461, 4302965.633799], [720631.960042, 4302966.205102]]]}, "properties": {}}, {"type": "Feature", "geometry": {"type": "Polygon", "coordinates": [[[720632.60461, 4302965.633799], [720633.123845, 4302966.203661], [720633.768619, 4302965.637914], [720633.249178, 4302965.062495], [720632.60461, 4302965.633799]]]}, "properties": {}}, {"type": "Feature", "geometry": {"type": "Polygon", "coordinates": [[[720633.249178, 4302965.062495], [720633.768619, 4302965.637914], [720634.413393, 4302965.072168], [720633.893747, 4302964.491191], [720633.249178, 4302965.062495]]]}, "properties": {}}, {"type": "Feature", "geometry": {"type": "Polygon", "coordinates": [[[720633.893747, 4302964.491191], [720634.413393, 4302965.072168], [720635.058166, 4302964.506422], [720634.538314, 4302963.919889], [720633.893747, 4302964.491191]]]}, "properties": {}}, {"type": "Feature", "geometry": {"type": "Polygon", "coordinates": [[[720631.189523, 4302967.900901], [720631.708141, 4302968.454093], [720632.353121, 4302967.893904], [720631.834297, 4302967.335154], [720631.189523, 4302967.900901]]]}, "properties": {}}, {"type": "Feature", "geometry": {"type": "Polygon", "coordinates": [[[720631.834297, 4302967.335154], [720632.353121, 4302967.893904], [720632.9981, 4302967.333713], [720632.479072, 4302966.769407], [720631.834297, 4302967.335154]]]}, "properties": {}}, {"type": "Feature", "geometry": {"type": "Polygon", "coordinates": [[[720632.479072, 4302966.769407], [720632.9981, 4302967.333713], [720633.643081, 4302966.773524], [720633.123845, 4302966.203661], [720632.479072, 4302966.769407]]]}, "properties": {}}, {"type": "Feature", "geometry": {"type": "Polygon", "coordinates": [[[720633.123845, 4302966.203661], [720633.643081, 4302966.773524], [720634.28806, 4302966.213334], [720633.768619, 4302965.637914], [720633.123845, 4302966.203661]]]}, "properties": {}}, {"type": "Feature", "geometry": {"type": "Polygon", "coordinates": [[[720633.768619, 4302965.637914], [720634.28806, 4302966.213334], [720634.93304, 4302965.653144], [720634.413393, 4302965.072168], [720633.768619, 4302965.637914]]]}, "properties": {}}, {"type": "Feature", "geometry": {"type": "Polygon", "coordinates": [[[720634.413393, 4302965.072168], [720634.93304, 4302965.653144], [720635.578019, 4302965.092954], [720635.058166, 4302964.506422], [720634.413393, 4302965.072168]]]}, "properties": {}}, {"type": "Feature", "geometry": {"type": "Polygon", "coordinates": [[[720631.708141, 4302968.454093], [720632.22676, 4302969.007286], [720632.871944, 4302968.452653], [720632.353121, 4302967.893904], [720631.708141, 4302968.454093]]]}, "properties": {}}, {"type": "Feature", "geometry": {"type": "Polygon", "coordinates": [[[720632.353121, 4302967.893904], [720632.871944, 4302968.452653], [720633.517131, 4302967.898019], [720632.9981, 4302967.333713], [720632.353121, 4302967.893904]]]}, "properties": {}}, {"type": "Feature", "geometry": {"type": "Polygon", "coordinates": [[[720632.9981, 4302967.333713], [720633.517131, 4302967.898019], [720634.162316, 4302967.343386], [720633.643081, 4302966.773524], [720632.9981, 4302967.333713]]]}, "properties": {}}, {"type": "Feature", "geometry": {"type": "Polygon", "coordinates": [[[720633.643081, 4302966.773524], [720634.162316, 4302967.343386], [720634.807502, 4302966.788753], [720634.28806, 4302966.213334], [720633.643081, 4302966.773524]]]}, "properties": {}}, {"type": "Feature", "geometry": {"type": "Polygon", "coordinates": [[[720634.28806, 4302966.213334], [720634.807502, 4302966.788753], [720635.452688, 4302966.234119], [720634.93304, 4302965.653144], [720634.28806, 4302966.213334]]]}, "properties": {}}, {"type": "Feature", "geometry": {"type": "Polygon", "coordinates": [[[720634.93304, 4302965.653144], [720635.452688, 4302966.234119], [720636.097872, 4302965.679487], [720635.578019, 4302965.092954], [720634.93304, 4302965.653144]]]}, "properties": {}}], "crs": {"type": "name", "properties": {"name": "EPSG:32615"}}}