{
"type": "FeatureCollection",
"name": "plots-ex6_circles",
"crs": { "type": "name", "properties": { "name": "urn:ogc:def:crs:EPSG::32615" } },
"features": [
{ "type": "Feature", "properties": { }, "geometry": { "type": "Polygon", "coordinates": [ [ [ 720628.324926999979652, 4302963.189803999848664 ], [ 720628.323241654317826, 4302963.155498000793159 ], [ 720628.318201848189346, 4302963.121522387489676 ], [ 720628.30985611747019, 4302963.088204362429678 ], [ 720628.298284836346284, 4302963.05586479883641 ], [ 720628.283599442569539, 4302963.024815142154694 ], [ 720628.265941364341415, 4302962.995354418642819 ], [ 720628.245480658719316, 4302962.967766350135207 ], [ 720628.222414373420179, 4302962.94231662619859 ], [ 720628.196964649483562, 4302962.919250341132283 ], [ 720628.169376581558026, 4302962.89878963585943 ], [ 720628.139915857929736, 4302962.881131557747722 ], [ 720628.108866201364435, 4302962.866446163505316 ], [ 720628.076526637072675, 4302962.854874881915748 ], [ 720628.043208612711169, 4302962.846529151313007 ], [ 720628.009232999174856, 4302962.841489345766604 ], [ 720627.974927, 4302962.839804000221193 ], [ 720627.940621000831015, 4302962.841489345766604 ], [ 720627.906645387294702, 4302962.846529151313007 ], [ 720627.873327362933196, 4302962.854874881915748 ], [ 720627.840987798641436, 4302962.866446163505316 ], [ 720627.809938142076135, 4302962.881131557747722 ], [ 720627.780477418447845, 4302962.89878963585943 ], [ 720627.75288935052231, 4302962.919250341132283 ], [ 720627.727439626585692, 4302962.94231662619859 ], [ 720627.704373341286555, 4302962.967766350135207 ], [ 720627.683912635664456, 4302962.995354418642819 ], [ 720627.666254557436332, 4302963.024815142154694 ], [ 720627.651569163659588, 4302963.05586479883641 ], [ 720627.639997882535681, 4302963.088204362429678 ], [ 720627.631652151816525, 4302963.121522387489676 ], [ 720627.626612345688045, 4302963.155498000793159 ], [ 720627.624927000026219, 4302963.189803999848664 ], [ 720627.626612345688045, 4302963.224109998904169 ], [ 720627.631652151816525, 4302963.258085612207651 ], [ 720627.639997882535681, 4302963.291403637267649 ], [ 720627.651569163659588, 4302963.323743200860918 ], [ 720627.666254557436332, 4302963.354792857542634 ], [ 720627.683912635664456, 4302963.384253581054509 ], [ 720627.704373341286555, 4302963.41184164956212 ], [ 720627.727439626585692, 4302963.437291373498738 ], [ 720627.75288935052231, 4302963.460357658565044 ], [ 720627.780477418447845, 4302963.480818363837898 ], [ 720627.809938142076135, 4302963.498476441949606 ], [ 720627.840987798641436, 4302963.513161836192012 ], [ 720627.873327362933196, 4302963.524733117781579 ], [ 720627.906645387294702, 4302963.533078848384321 ], [ 720627.940621000831015, 4302963.538118653930724 ], [ 720627.974927, 4302963.539803999476135 ], [ 720628.009232999174856, 4302963.538118653930724 ], [ 720628.043208612711169, 4302963.533078848384321 ], [ 720628.076526637072675, 4302963.524733117781579 ], [ 720628.108866201364435, 4302963.513161836192012 ], [ 720628.139915857929736, 4302963.498476441949606 ], [ 720628.169376581558026, 4302963.480818363837898 ], [ 720628.196964649483562, 4302963.460357658565044 ], [ 720628.222414373420179, 4302963.437291373498738 ], [ 720628.245480658719316, 4302963.41184164956212 ], [ 720628.265941364341415, 4302963.384253581054509 ], [ 720628.283599442569539, 4302963.354792857542634 ], [ 720628.298284836346284, 4302963.323743200860918 ], [ 720628.30985611747019, 4302963.291403637267649 ], [ 720628.318201848189346, 4302963.258085612207651 ], [ 720628.323241654317826, 4302963.224109998904169 ], [ 720628.324926999979652, 4302963.189803999848664 ] ] ] } },
{ "type": "Feature", "properties": { }, "geometry": { "type": "Polygon", "coordinates": [ [ [ 720628.82574, 4302963.828095000237226 ], [ 720628.824054654338397, 4302963.793789001181722 ], [ 720628.819014848209918, 4302963.759813387878239 ], [ 720628.810669117490761, 4302963.726495362818241 ], [ 720628.799097836366855, 4302963.694155799224973 ], [ 720628.78441244259011, 4302963.663106142543256 ], [ 720628.766754364361987, 4302963.633645419031382 ], [ 720628.746293658739887, 4302963.60605735052377 ], [ 720628.72322737344075, 4302963.580607626587152 ], [ 720628.697777649504133, 4302963.557541341520846 ], [ 720628.670189581578597, 4302963.537080636247993 ], [ 720628.640728857950307, 4302963.519422558136284 ], [ 720628.609679201385006, 4302963.504737163893878 ], [ 720628.577339637093246, 4302963.493165882304311 ], [ 720628.54402161273174, 4302963.48482015170157 ], [ 720628.510045999195427, 4302963.479780346155167 ], [ 720628.475740000023507, 4302963.478095000609756 ], [ 720628.441434000851586, 4302963.479780346155167 ], [ 720628.407458387315273, 4302963.48482015170157 ], [ 720628.374140362953767, 4302963.493165882304311 ], [ 720628.341800798662007, 4302963.504737163893878 ], [ 720628.310751142096706, 4302963.519422558136284 ], [ 720628.281290418468416, 4302963.537080636247993 ], [ 720628.253702350542881, 4302963.557541341520846 ], [ 720628.228252626606263, 4302963.580607626587152 ], [ 720628.205186341307126, 4302963.60605735052377 ], [ 720628.184725635685027, 4302963.633645419031382 ], [ 720628.167067557456903, 4302963.663106142543256 ], [ 720628.152382163680159, 4302963.694155799224973 ], [ 720628.140810882556252, 4302963.726495362818241 ], [ 720628.132465151837096, 4302963.759813387878239 ], [ 720628.127425345708616, 4302963.793789001181722 ], [ 720628.12574000004679, 4302963.828095000237226 ], [ 720628.127425345708616, 4302963.862400999292731 ], [ 720628.132465151837096, 4302963.896376612596214 ], [ 720628.140810882556252, 4302963.929694637656212 ], [ 720628.152382163680159, 4302963.96203420124948 ], [ 720628.167067557456903, 4302963.993083857931197 ], [ 720628.184725635685027, 4302964.022544581443071 ], [ 720628.205186341307126, 4302964.050132649950683 ], [ 720628.228252626606263, 4302964.0755823738873 ], [ 720628.253702350542881, 4302964.098648658953607 ], [ 720628.281290418468416, 4302964.11910936422646 ], [ 720628.310751142096706, 4302964.136767442338169 ], [ 720628.341800798662007, 4302964.151452836580575 ], [ 720628.374140362953767, 4302964.163024118170142 ], [ 720628.407458387315273, 4302964.171369848772883 ], [ 720628.441434000851586, 4302964.176409654319286 ], [ 720628.475740000023507, 4302964.178094999864697 ], [ 720628.510045999195427, 4302964.176409654319286 ], [ 720628.54402161273174, 4302964.171369848772883 ], [ 720628.577339637093246, 4302964.163024118170142 ], [ 720628.609679201385006, 4302964.151452836580575 ], [ 720628.640728857950307, 4302964.136767442338169 ], [ 720628.670189581578597, 4302964.11910936422646 ], [ 720628.697777649504133, 4302964.098648658953607 ], [ 720628.72322737344075, 4302964.0755823738873 ], [ 720628.746293658739887, 4302964.050132649950683 ], [ 720628.766754364361987, 4302964.022544581443071 ], [ 720628.78441244259011, 4302963.993083857931197 ], [ 720628.799097836366855, 4302963.96203420124948 ], [ 720628.810669117490761, 4302963.929694637656212 ], [ 720628.819014848209918, 4302963.896376612596214 ], [ 720628.824054654338397, 4302963.862400999292731 ], [ 720628.82574, 4302963.828095000237226 ] ] ] } },
{ "type": "Feature", "properties": { }, "geometry": { "type": "Polygon", "coordinates": [ [ [ 720629.356012, 4302964.368187 ], [ 720629.354326654342003, 4302964.333881000988185 ], [ 720629.349286848213524, 4302964.299905387684703 ], [ 720629.340941117494367, 4302964.266587362624705 ], [ 720629.329369836370461, 4302964.234247799031436 ], [ 720629.314684442593716, 4302964.20319814234972 ], [ 720629.297026364365593, 4302964.173737418837845 ], [ 720629.276565658743493, 4302964.146149350330234 ], [ 720629.253499373444356, 4302964.120699626393616 ], [ 720629.228049649507739, 4302964.09763334132731 ], [ 720629.200461581582204, 4302964.077172636054456 ], [ 720629.171000857953914, 4302964.059514557942748 ], [ 720629.139951201388612, 4302964.044829163700342 ], [ 720629.107611637096852, 4302964.033257882110775 ], [ 720629.074293612735346, 4302964.024912151508033 ], [ 720629.040317999199033, 4302964.01987234596163 ], [ 720629.006012000027113, 4302964.018187000416219 ], [ 720628.971706000855193, 4302964.01987234596163 ], [ 720628.937730387318879, 4302964.024912151508033 ], [ 720628.904412362957373, 4302964.033257882110775 ], [ 720628.872072798665613, 4302964.044829163700342 ], [ 720628.841023142100312, 4302964.059514557942748 ], [ 720628.811562418472022, 4302964.077172636054456 ], [ 720628.783974350546487, 4302964.09763334132731 ], [ 720628.758524626609869, 4302964.120699626393616 ], [ 720628.735458341310732, 4302964.146149350330234 ], [ 720628.714997635688633, 4302964.173737418837845 ], [ 720628.697339557460509, 4302964.20319814234972 ], [ 720628.682654163683765, 4302964.234247799031436 ], [ 720628.671082882559858, 4302964.266587362624705 ], [ 720628.662737151840702, 4302964.299905387684703 ], [ 720628.657697345712222, 4302964.333881000988185 ], [ 720628.656012000050396, 4302964.368187 ], [ 720628.657697345712222, 4302964.402492999099195 ], [ 720628.662737151840702, 4302964.436468612402678 ], [ 720628.671082882559858, 4302964.469786637462676 ], [ 720628.682654163683765, 4302964.502126201055944 ], [ 720628.697339557460509, 4302964.53317585773766 ], [ 720628.714997635688633, 4302964.562636581249535 ], [ 720628.735458341310732, 4302964.590224649757147 ], [ 720628.758524626609869, 4302964.615674373693764 ], [ 720628.783974350546487, 4302964.638740658760071 ], [ 720628.811562418472022, 4302964.659201364032924 ], [ 720628.841023142100312, 4302964.676859442144632 ], [ 720628.872072798665613, 4302964.691544836387038 ], [ 720628.904412362957373, 4302964.703116117976606 ], [ 720628.937730387318879, 4302964.711461848579347 ], [ 720628.971706000855193, 4302964.71650165412575 ], [ 720629.006012000027113, 4302964.718186999671161 ], [ 720629.040317999199033, 4302964.71650165412575 ], [ 720629.074293612735346, 4302964.711461848579347 ], [ 720629.107611637096852, 4302964.703116117976606 ], [ 720629.139951201388612, 4302964.691544836387038 ], [ 720629.171000857953914, 4302964.676859442144632 ], [ 720629.200461581582204, 4302964.659201364032924 ], [ 720629.228049649507739, 4302964.638740658760071 ], [ 720629.253499373444356, 4302964.615674373693764 ], [ 720629.276565658743493, 4302964.590224649757147 ], [ 720629.297026364365593, 4302964.562636581249535 ], [ 720629.314684442593716, 4302964.53317585773766 ], [ 720629.329369836370461, 4302964.502126201055944 ], [ 720629.340941117494367, 4302964.469786637462676 ], [ 720629.349286848213524, 4302964.436468612402678 ], [ 720629.354326654342003, 4302964.402492999099195 ], [ 720629.356012, 4302964.368187 ] ] ] } }
]
}
